{"type": "FeatureCollection","features": [{"type": "Feature", "geometry": {"type":"Point","coordinates":[110.8344059,-7.5562481]}, "properties": {"osm_id": 9784408213, "osm_type": "nodes", "capacity": null, "name": "SD N Bibis Wetan", "amenity": "school", "isced_level": null}},{"type": "Feature", "geometry": {"type":"Point","coordinates":[110.815372,-7.5553567]}, "properties": {"osm_id": 4061699498, "osm_type": "nodes", "capacity": null, "name": "PAUD Sunrise", "amenity": "kindergarten", "isced_level": null}},{"type": "Feature", "geometry": {"type":"Point","coordinates":[110.7991109,-7.5532091]}, "properties": {"osm_id": 9684887745, "osm_type": "nodes", "capacity": null, "name": "SMK N 6 SURAKARTA", "amenity": "school", "isced_level": null}},{"type": "Feature", "geometry": {"type":"Point","coordinates":[110.7972114,-7.551328]}, "properties": {"osm_id": 4425984690, "osm_type": "nodes", "capacity": null, "name": "SMA Panghudi Luhur Santo Yosef Surakarta", "amenity": "school", "isced_level": null}},{"type": "Feature", "geometry": {"type":"Point","coordinates":[110.7754764,-7.5530506]}, "properties": {"osm_id": 9835182043, "osm_type": "nodes", "capacity": null, "name": "SMK Katolik Kolese Mikael Surakarta", "amenity": "school", "isced_level": null}},{"type": "Feature", "geometry": {"type":"Point","coordinates":[110.7810329,-7.5523661]}, "properties": {"osm_id": 9781225901, "osm_type": "nodes", "capacity": null, "name": "TK Aisyiyah Karangasem", "amenity": "kindergarten", "isced_level": null}},{"type": "Feature", "geometry": {"type":"Point","coordinates":[110.7945155,-7.5637478]}, "properties": {"osm_id": 9781426723, "osm_type": "nodes", "capacity": null, "name": "Universitas Islam Batik Surakarta", "amenity": "university", "isced_level": null}},{"type": "Feature", "geometry": {"type":"Point","coordinates":[110.8394666,-7.5846981]}, "properties": {"osm_id": 9787199284, "osm_type": "nodes", "capacity": null, "name": "MI Ahmad Maryam Surakarta", "amenity": "school", "isced_level": null}},{"type": "Feature", "geometry": {"type":"Point","coordinates":[110.8327008,-7.5846049]}, "properties": {"osm_id": 9787199305, "osm_type": "nodes", "capacity": null, "name": "SMA Muhammadiyah 23 Surakarta", "amenity": "school", "isced_level": null}},{"type": "Feature", "geometry": {"type":"Point","coordinates":[110.8345376,-7.5819913]}, "properties": {"osm_id": 9787199308, "osm_type": "nodes", "capacity": null, "name": "SD Al-Islam 06 Al-Fajar", "amenity": "school", "isced_level": null}},{"type": "Feature", "geometry": {"type":"Point","coordinates":[110.8354882,-7.5855901]}, "properties": {"osm_id": 13533332833, "osm_type": "nodes", "capacity": null, "name": "Paud Laatansa", "amenity": "kindergarten", "isced_level": null}},{"type": "Feature", "geometry": {"type":"Point","coordinates":[110.8147651,-7.5416892]}, "properties": {"osm_id": 9783077649, "osm_type": "nodes", "capacity": null, "name": "SD N 02 Banyuagung Surakarta", "amenity": "school", "isced_level": null}},{"type": "Feature", "geometry": {"type":"Point","coordinates":[110.818034,-7.5416855]}, "properties": {"osm_id": 9783077695, "osm_type": "nodes", "capacity": null, "name": "SMK Kesehatan Mandala Bhakti Surakarta", "amenity": "school", "isced_level": null}},{"type": "Feature", "geometry": {"type":"Point","coordinates":[110.8169687,-7.5430258]}, "properties": {"osm_id": 9783077697, "osm_type": "nodes", "capacity": null, "name": "SD N 03 Nusukan, Surakarta", "amenity": "school", "isced_level": null}},{"type": "Feature", "geometry": {"type":"Point","coordinates":[110.8006077,-7.5428525]}, "properties": {"osm_id": 9783077620, "osm_type": "nodes", "capacity": null, "name": "SMA Muhammadiyah PK Kota Barat", "amenity": "school", "isced_level": null}},{"type": "Feature", "geometry": {"type":"Point","coordinates":[110.8106552,-7.5329006]}, "properties": {"osm_id": 9783077629, "osm_type": "nodes", "capacity": null, "name": "SD N 22 Sruni", "amenity": "school", "isced_level": null}},{"type": "Feature", "geometry": {"type":"Point","coordinates":[110.8217248,-7.5459502]}, "properties": {"osm_id": 9783077707, "osm_type": "nodes", "capacity": null, "name": "Sekolah Design Solo", "amenity": "school", "isced_level": null}},{"type": "Feature", "geometry": {"type":"Point","coordinates":[110.8237563,-7.5467928]}, "properties": {"osm_id": 9783077709, "osm_type": "nodes", "capacity": null, "name": "TK Aisyiyah Nusukan", "amenity": "kindergarten", "isced_level": null}},{"type": "Feature", "geometry": {"type":"Point","coordinates":[110.810545,-7.556896]}, "properties": {"osm_id": 9789278016, "osm_type": "nodes", "capacity": null, "name": "SD Kristen Manahan", "amenity": "school", "isced_level": null}},{"type": "Feature", "geometry": {"type":"Point","coordinates":[110.8113502,-7.5512546]}, "properties": {"osm_id": 9789389246, "osm_type": "nodes", "capacity": null, "name": "UTP Surakarta", "amenity": "university", "isced_level": null}},{"type": "Feature", "geometry": {"type":"Point","coordinates":[110.8107568,-7.5502276]}, "properties": {"osm_id": 9783077670, "osm_type": "nodes", "capacity": null, "name": "SMK Purnama Surakarta", "amenity": "school", "isced_level": null}},{"type": "Feature", "geometry": {"type":"Point","coordinates":[110.8163054,-7.5554094]}, "properties": {"osm_id": 4061699507, "osm_type": "nodes", "capacity": null, "name": "TK Siwi Peni", "amenity": "kindergarten", "isced_level": null}},{"type": "Feature", "geometry": {"type":"Point","coordinates":[110.8149754,-7.5529665]}, "properties": {"osm_id": 4052331293, "osm_type": "nodes", "capacity": null, "name": "SLB. B-Yayasan Rehabilitasi Tuna Rungu", "amenity": "school", "isced_level": null}},{"type": "Feature", "geometry": {"type":"Point","coordinates":[110.8140558,-7.5572521]}, "properties": {"osm_id": 9789389233, "osm_type": "nodes", "capacity": null, "name": "Home Schooling Kak Seto Surakarta", "amenity": "school", "isced_level": null}},{"type": "Feature", "geometry": {"type":"Point","coordinates":[110.8113113,-7.5476869]}, "properties": {"osm_id": 9783077666, "osm_type": "nodes", "capacity": null, "name": "SD N 05 Sumber", "amenity": "school", "isced_level": null}},{"type": "Feature", "geometry": {"type":"Point","coordinates":[110.8156778,-7.547904]}, "properties": {"osm_id": 9783077672, "osm_type": "nodes", "capacity": null, "name": "SD N Praon No. 223", "amenity": "school", "isced_level": null}},{"type": "Feature", "geometry": {"type":"Point","coordinates":[110.8189039,-7.5435935]}, "properties": {"osm_id": 9783077690, "osm_type": "nodes", "capacity": null, "name": "SD N Nusukan Barat, Surakarta", "amenity": "school", "isced_level": null}},{"type": "Feature", "geometry": {"type":"Point","coordinates":[110.8251469,-7.548817]}, "properties": {"osm_id": 9783077710, "osm_type": "nodes", "capacity": null, "name": "SD N 01 Nayu Barat", "amenity": "school", "isced_level": null}},{"type": "Feature", "geometry": {"type":"Point","coordinates":[110.8303417,-7.5506955]}, "properties": {"osm_id": 9783253678, "osm_type": "nodes", "capacity": null, "name": "SD N Cengklik", "amenity": "school", "isced_level": null}},{"type": "Feature", "geometry": {"type":"Point","coordinates":[110.8335995,-7.5523673]}, "properties": {"osm_id": 9783253684, "osm_type": "nodes", "capacity": null, "name": "AT-UB Surakarta", "amenity": "school", "isced_level": null}},{"type": "Feature", "geometry": {"type":"Point","coordinates":[110.7841787,-7.5659014]}, "properties": {"osm_id": 9781405001, "osm_type": "nodes", "capacity": null, "name": "SD N 03 Pajang", "amenity": "school", "isced_level": null}},{"type": "Feature", "geometry": {"type":"Point","coordinates":[110.7952143,-7.5626054]}, "properties": {"osm_id": 4791470090, "osm_type": "nodes", "capacity": null, "name": "Universitas Islam Batik Surakarta", "amenity": "university", "isced_level": null}},{"type": "Feature", "geometry": {"type":"Point","coordinates":[110.7796936,-7.5580335]}, "properties": {"osm_id": 3931643660, "osm_type": "nodes", "capacity": null, "name": "SMK Batik 1", "amenity": "school", "isced_level": null}},{"type": "Feature", "geometry": {"type":"Point","coordinates":[110.7907573,-7.5613648]}, "properties": {"osm_id": 2341373470, "osm_type": "nodes", "capacity": null, "name": "SMP Batik 1 Surakarta", "amenity": "school", "isced_level": null}},{"type": "Feature", "geometry": {"type":"Point","coordinates":[110.7912401,-7.5614765]}, "properties": {"osm_id": 2341375754, "osm_type": "nodes", "capacity": null, "name": "SMA Batik 1 Surakarta", "amenity": "school", "isced_level": null}},{"type": "Feature", "geometry": {"type":"Point","coordinates":[110.8071913,-7.5389404]}, "properties": {"osm_id": 9780831660, "osm_type": "nodes", "capacity": null, "name": "SMPN 23 Surakarta", "amenity": "school", "isced_level": null}},{"type": "Feature", "geometry": {"type":"Point","coordinates":[110.8041901,-7.5347113]}, "properties": {"osm_id": 9780831652, "osm_type": "nodes", "capacity": null, "name": "SMK N 09 Surakarta", "amenity": "school", "isced_level": null}},{"type": "Feature", "geometry": {"type":"Point","coordinates":[110.8028326,-7.5353767]}, "properties": {"osm_id": 9780831649, "osm_type": "nodes", "capacity": null, "name": "SD N 03 Banyuanyar", "amenity": "school", "isced_level": null}},{"type": "Feature", "geometry": {"type":"Point","coordinates":[110.8216115,-7.5679542]}, "properties": {"osm_id": 4498393189, "osm_type": "nodes", "capacity": null, "name": "MTA pusat", "amenity": "school", "isced_level": null}},{"type": "Feature", "geometry": {"type":"Point","coordinates":[110.7923315,-7.5558387]}, "properties": {"osm_id": 5365335521, "osm_type": "nodes", "capacity": null, "name": "SDIT Nur Hidayah", "amenity": "school", "isced_level": null}},{"type": "Feature", "geometry": {"type":"Point","coordinates":[110.8483988,-7.5635434]}, "properties": {"osm_id": 5922062385, "osm_type": "nodes", "capacity": null, "name": "SMP Negeri 8 Surakarta", "amenity": "school", "isced_level": null}},{"type": "Feature", "geometry": {"type":"Point","coordinates":[110.8399038,-7.5831427]}, "properties": {"osm_id": 9787199282, "osm_type": "nodes", "capacity": null, "name": "SD N Losari", "amenity": "school", "isced_level": null}},{"type": "Feature", "geometry": {"type":"Point","coordinates":[110.8364159,-7.5803224]}, "properties": {"osm_id": 9787199289, "osm_type": "nodes", "capacity": null, "name": "SD N Wiropaten 02", "amenity": "school", "isced_level": null}},{"type": "Feature", "geometry": {"type":"Point","coordinates":[110.8392722,-7.5871848]}, "properties": {"osm_id": 9787199298, "osm_type": "nodes", "capacity": null, "name": "Asrama Putera SMA MTA Surakarta", "amenity": "school", "isced_level": null}},{"type": "Feature", "geometry": {"type":"Point","coordinates":[110.8359285,-7.5846575]}, "properties": {"osm_id": 9787199301, "osm_type": "nodes", "capacity": null, "name": "SD IT MTA Surakarta", "amenity": "school", "isced_level": null}},{"type": "Feature", "geometry": {"type":"Point","coordinates":[110.836063,-7.5844926]}, "properties": {"osm_id": 9787199302, "osm_type": "nodes", "capacity": null, "name": "TK MTA 01 Surakarta", "amenity": "kindergarten", "isced_level": null}},{"type": "Feature", "geometry": {"type":"Point","coordinates":[110.8329733,-7.5839489]}, "properties": {"osm_id": 9787199306, "osm_type": "nodes", "capacity": null, "name": "SD N Kanisius Semanggi 02", "amenity": "school", "isced_level": null}},{"type": "Feature", "geometry": {"type":"Point","coordinates":[110.8320673,-7.5809914]}, "properties": {"osm_id": 9787199315, "osm_type": "nodes", "capacity": null, "name": "SMA Islam Diponegoro", "amenity": "school", "isced_level": null}},{"type": "Feature", "geometry": {"type":"Point","coordinates":[110.8328742,-7.5813633]}, "properties": {"osm_id": 9787199316, "osm_type": "nodes", "capacity": null, "name": "SD N Gurawan 65 Surakarta", "amenity": "school", "isced_level": null}},{"type": "Feature", "geometry": {"type":"Point","coordinates":[110.8299261,-7.5482463]}, "properties": {"osm_id": 9783253688, "osm_type": "nodes", "capacity": null, "name": "Universitas Bina Sarana Informatika Kampus Surakarta", "amenity": "university", "isced_level": null}},{"type": "Feature", "geometry": {"type":"Point","coordinates":[110.8183431,-7.5560898]}, "properties": {"osm_id": 4068234527, "osm_type": "nodes", "capacity": null, "name": "SDN Cindirejo", "amenity": "school", "isced_level": null}},{"type": "Feature", "geometry": {"type":"Point","coordinates":[110.8128684,-7.5424783]}, "properties": {"osm_id": 9783077624, "osm_type": "nodes", "capacity": null, "name": "SD N 03 Banyuagung", "amenity": "school", "isced_level": null}},{"type": "Feature", "geometry": {"type":"Point","coordinates":[110.8122943,-7.5362819]}, "properties": {"osm_id": 9783077627, "osm_type": "nodes", "capacity": null, "name": "PONPES Mujahiddin Solo", "amenity": "school", "isced_level": null}},{"type": "Feature", "geometry": {"type":"Point","coordinates":[110.8161922,-7.5340401]}, "properties": {"osm_id": 9783077655, "osm_type": "nodes", "capacity": null, "name": "ITS PKU Muhammadiyah Surakarta", "amenity": "university", "isced_level": null}},{"type": "Feature", "geometry": {"type":"Point","coordinates":[110.8187583,-7.5364244]}, "properties": {"osm_id": 9783077659, "osm_type": "nodes", "capacity": null, "name": "Al-Islam Primary School 04 Kadipiro", "amenity": "school", "isced_level": null}},{"type": "Feature", "geometry": {"type":"Point","coordinates":[110.8192849,-7.5395361]}, "properties": {"osm_id": 9783077663, "osm_type": "nodes", "capacity": null, "name": "TK Aisyiah 01 Kadipiro", "amenity": "kindergarten", "isced_level": null}},{"type": "Feature", "geometry": {"type":"Point","coordinates":[110.8197758,-7.5438939]}, "properties": {"osm_id": 9783077683, "osm_type": "nodes", "capacity": null, "name": "Nusukan Elementary School", "amenity": "school", "isced_level": null}},{"type": "Feature", "geometry": {"type":"Point","coordinates":[110.8144004,-7.5439165]}, "properties": {"osm_id": 9783077701, "osm_type": "nodes", "capacity": null, "name": "TPA Amal Asih", "amenity": "school", "isced_level": null}},{"type": "Feature", "geometry": {"type":"Point","coordinates":[110.8255063,-7.549047]}, "properties": {"osm_id": 9783077711, "osm_type": "nodes", "capacity": null, "name": "SD N 02 Nayu Barat", "amenity": "school", "isced_level": null}},{"type": "Feature", "geometry": {"type":"Point","coordinates":[110.8361758,-7.5440468]}, "properties": {"osm_id": 9783253702, "osm_type": "nodes", "capacity": null, "name": "Politeknik Insan Husada Surakarta", "amenity": "university", "isced_level": null}},{"type": "Feature", "geometry": {"type":"Point","coordinates":[110.8113551,-7.5388491]}, "properties": {"osm_id": 9781009773, "osm_type": "nodes", "capacity": null, "name": "TK Al-Abidin", "amenity": "kindergarten", "isced_level": null}},{"type": "Feature", "geometry": {"type":"Point","coordinates":[110.8057749,-7.5390999]}, "properties": {"osm_id": 9780831667, "osm_type": "nodes", "capacity": null, "name": "SMA ABBS Gedung Putri", "amenity": "school", "isced_level": null}},{"type": "Feature", "geometry": {"type":"Point","coordinates":[110.8329111,-7.5503114]}, "properties": {"osm_id": 9783253687, "osm_type": "nodes", "capacity": null, "name": "SMP N 07 Surakarta", "amenity": "university", "isced_level": null}},{"type": "Feature", "geometry": {"type":"Point","coordinates":[110.8340762,-7.5488449]}, "properties": {"osm_id": 9783253695, "osm_type": "nodes", "capacity": null, "name": "SD Kristen Setabelan 01 Surakarta", "amenity": "school", "isced_level": null}},{"type": "Feature", "geometry": {"type":"Point","coordinates":[110.8360193,-7.5459125]}, "properties": {"osm_id": 9783253696, "osm_type": "nodes", "capacity": null, "name": "Universitas Setia Budi", "amenity": "university", "isced_level": null}},{"type": "Feature", "geometry": {"type":"Point","coordinates":[110.8147703,-7.5415021]}, "properties": {"osm_id": 9783077648, "osm_type": "nodes", "capacity": null, "name": "SD N 01 Banyuagung Surakarta", "amenity": "school", "isced_level": null}},{"type": "Feature", "geometry": {"type":"Point","coordinates":[110.8032453,-7.5534308]}, "properties": {"osm_id": 9822012122, "osm_type": "nodes", "capacity": null, "name": "Focus Independent School Surakarta", "amenity": "school", "isced_level": null}},{"type": "Feature", "geometry": {"type":"Point","coordinates":[110.8117554,-7.55594]}, "properties": {"osm_id": 9789389227, "osm_type": "nodes", "capacity": null, "name": "SMA Al-Azhar Syifa Budi Surakarta", "amenity": "school", "isced_level": null}},{"type": "Feature", "geometry": {"type":"Point","coordinates":[110.8131746,-7.5538542]}, "properties": {"osm_id": 9789389240, "osm_type": "nodes", "capacity": null, "name": "MTs N 01 Surakarta", "amenity": "school", "isced_level": null}},{"type": "Feature", "geometry": {"type":"Point","coordinates":[110.8111866,-7.5517518]}, "properties": {"osm_id": 9789389245, "osm_type": "nodes", "capacity": null, "name": "SMK N Tunas Harapan 02", "amenity": "school", "isced_level": null}},{"type": "Feature", "geometry": {"type":"Point","coordinates":[110.8119617,-7.5521134]}, "properties": {"osm_id": 9789389248, "osm_type": "nodes", "capacity": null, "name": "SD N Purworejo No. 35 Surakarta", "amenity": "school", "isced_level": null}},{"type": "Feature", "geometry": {"type":"Point","coordinates":[110.7845565,-7.5607162]}, "properties": {"osm_id": 9781404986, "osm_type": "nodes", "capacity": null, "name": "SD N 04 Pajang", "amenity": "school", "isced_level": null}},{"type": "Feature", "geometry": {"type":"Point","coordinates":[110.7842135,-7.5651596]}, "properties": {"osm_id": 9781404999, "osm_type": "nodes", "capacity": null, "name": "SMP N 27 Surakarta", "amenity": "school", "isced_level": null}},{"type": "Feature", "geometry": {"type":"Point","coordinates":[110.7850599,-7.5651731]}, "properties": {"osm_id": 9781405003, "osm_type": "nodes", "capacity": null, "name": "MTs N Surakarta II", "amenity": "school", "isced_level": null}},{"type": "Feature", "geometry": {"type":"Point","coordinates":[110.7861509,-7.566269]}, "properties": {"osm_id": 9781405005, "osm_type": "nodes", "capacity": null, "name": "SD N 02 Pajang", "amenity": "school", "isced_level": null}},{"type": "Feature", "geometry": {"type":"Point","coordinates":[110.7889408,-7.5636839]}, "properties": {"osm_id": 9781405013, "osm_type": "nodes", "capacity": null, "name": "SD N Kabangan", "amenity": "school", "isced_level": null}},{"type": "Feature", "geometry": {"type":"Point","coordinates":[110.780939,-7.5525003]}, "properties": {"osm_id": 9781225900, "osm_type": "nodes", "capacity": null, "name": "SD Muhammadiyah 16 Karangasem", "amenity": "school", "isced_level": null}},{"type": "Feature", "geometry": {"type":"Point","coordinates":[110.7809253,-7.5540691]}, "properties": {"osm_id": 9781225902, "osm_type": "nodes", "capacity": null, "name": "SD N Soropandan Surakarta", "amenity": "school", "isced_level": null}},{"type": "Feature", "geometry": {"type":"Point","coordinates":[110.7811775,-7.553415]}, "properties": {"osm_id": 9781225904, "osm_type": "nodes", "capacity": null, "name": "SD N 03 Karangasem", "amenity": "school", "isced_level": null}},{"type": "Feature", "geometry": {"type":"Point","coordinates":[110.7740669,-7.5512927]}, "properties": {"osm_id": 9781014032, "osm_type": "nodes", "capacity": null, "name": "SMP N 03 Surakarta", "amenity": "school", "isced_level": null}},{"type": "Feature", "geometry": {"type":"Point","coordinates":[110.7852557,-7.551995]}, "properties": {"osm_id": 9835205996, "osm_type": "nodes", "capacity": null, "name": "SDIT Insan Mulia Surakarta", "amenity": "school", "isced_level": null}},{"type": "Feature", "geometry": {"type":"Point","coordinates":[110.7809618,-7.5529431]}, "properties": {"osm_id": 9781225899, "osm_type": "nodes", "capacity": null, "name": "SMP Muhammadiyah 10 Surakarta", "amenity": "school", "isced_level": null}},{"type": "Feature", "geometry": {"type":"Point","coordinates":[110.7810246,-7.5535533]}, "properties": {"osm_id": 9781225903, "osm_type": "nodes", "capacity": null, "name": "SD N 01 Karangasem", "amenity": "school", "isced_level": null}},{"type": "Feature", "geometry": {"type":"Point","coordinates":[110.7836999,-7.5473792]}, "properties": {"osm_id": 9781009799, "osm_type": "nodes", "capacity": null, "name": "SD N 04 Karangasem Laweyan", "amenity": "school", "isced_level": null}},{"type": "Feature", "geometry": {"type":"Point","coordinates":[110.8363838,-7.5867103]}, "properties": {"osm_id": 9787199295, "osm_type": "nodes", "capacity": null, "name": "SMA MTA Surakarta", "amenity": "school", "isced_level": null}},{"type": "Feature", "geometry": {"type":"Point","coordinates":[110.8365589,-7.5861316]}, "properties": {"osm_id": 9787199296, "osm_type": "nodes", "capacity": null, "name": "Asrama Putri SMA MTA Surakarta", "amenity": "school", "isced_level": null}},{"type": "Feature", "geometry": {"type":"Point","coordinates":[110.8326535,-7.5754657]}, "properties": {"osm_id": 9787216122, "osm_type": "nodes", "capacity": null, "name": "SD N Pasarkliwon 01", "amenity": "school", "isced_level": null}},{"type": "Feature", "geometry": {"type":"Point","coordinates":[110.8353572,-7.5721218]}, "properties": {"osm_id": 4140276666, "osm_type": "nodes", "capacity": null, "name": "smk 1 surakarta", "amenity": "school", "isced_level": null}},{"type": "Feature", "geometry": {"type":"Point","coordinates":[110.8357898,-7.572139]}, "properties": {"osm_id": 4140276667, "osm_type": "nodes", "capacity": null, "name": "smp n 11 surakarta", "amenity": "school", "isced_level": null}},{"type": "Feature", "geometry": {"type":"Point","coordinates":[110.8350228,-7.5733631]}, "properties": {"osm_id": 4231199098, "osm_type": "nodes", "capacity": null, "name": "SD Dadapsari", "amenity": "school", "isced_level": null}},{"type": "Feature", "geometry": {"type":"Point","coordinates":[110.8355589,-7.5734488]}, "properties": {"osm_id": 4231199100, "osm_type": "nodes", "capacity": null, "name": "Sekolah Luar Biasa Harmony", "amenity": "school", "isced_level": null}},{"type": "Feature", "geometry": {"type":"Point","coordinates":[110.8363428,-7.5676013]}, "properties": {"osm_id": 7457621653, "osm_type": "nodes", "capacity": null, "name": "SD Warga", "amenity": "school", "isced_level": null}},{"type": "Feature", "geometry": {"type":"Point","coordinates":[110.8041764,-7.5705438]}, "properties": {"osm_id": 9825331442, "osm_type": "nodes", "capacity": null, "name": "SMP Ta'mirul Islam Surakarta", "amenity": "school", "isced_level": null}},{"type": "Feature", "geometry": {"type":"Point","coordinates":[110.8041148,-7.5703683]}, "properties": {"osm_id": 9825326773, "osm_type": "nodes", "capacity": null, "name": "SD Tamirul Islam Surakarta", "amenity": "school", "isced_level": null}},{"type": "Feature", "geometry": {"type":"Point","coordinates":[110.8330178,-7.5747227]}, "properties": {"osm_id": 9787216123, "osm_type": "nodes", "capacity": null, "name": "SMP Al-Irsyad", "amenity": "school", "isced_level": null}},{"type": "Feature", "geometry": {"type":"Point","coordinates":[110.8399746,-7.5548875]}, "properties": {"osm_id": 9784408216, "osm_type": "nodes", "capacity": null, "name": "SMP Muhammadiyah 07 Surakarta", "amenity": "school", "isced_level": null}},{"type": "Feature", "geometry": {"type":"Point","coordinates":[110.8397772,-7.5552231]}, "properties": {"osm_id": 9784408217, "osm_type": "nodes", "capacity": null, "name": "SD Muhammadiyah 04", "amenity": "school", "isced_level": null}},{"type": "Feature", "geometry": {"type":"Point","coordinates":[110.8332615,-7.5522954]}, "properties": {"osm_id": 9783253682, "osm_type": "nodes", "capacity": null, "name": "STMIK Adi Unggul Bhirawa", "amenity": "school", "isced_level": null}},{"type": "Feature", "geometry": {"type":"Point","coordinates":[110.8308407,-7.5501096]}, "properties": {"osm_id": 9783253676, "osm_type": "nodes", "capacity": null, "name": "SMA N 05 Surakarta", "amenity": "school", "isced_level": null}},{"type": "Feature", "geometry": {"type":"Point","coordinates":[110.8272994,-7.5630574]}, "properties": {"osm_id": 6129947133, "osm_type": "nodes", "capacity": null, "name": "Renata BIMBEL", "amenity": null, "isced_level": null}},{"type": "Feature", "geometry": {"type":"Point","coordinates":[110.8384476,-7.5595452]}, "properties": {"osm_id": 9821462513, "osm_type": "nodes", "capacity": null, "name": "Sekolah Vokasi Universitas Sebelas Maret Kolonel Sutarto Solo", "amenity": "university", "isced_level": null}},{"type": "Feature", "geometry": {"type":"Point","coordinates":[110.83242,-7.5592916]}, "properties": {"osm_id": 9821467979, "osm_type": "nodes", "capacity": null, "name": "SMP - SMA Warga Surakarta", "amenity": "school", "isced_level": null}},{"type": "Feature", "geometry": {"type":"Point","coordinates":[110.792965,-7.5653959]}, "properties": {"osm_id": 9781426720, "osm_type": "nodes", "capacity": null, "name": "SD N Sondakan", "amenity": "school", "isced_level": null}},{"type": "Feature", "geometry": {"type":"Point","coordinates":[110.7804616,-7.5592087]}, "properties": {"osm_id": 3931763736, "osm_type": "nodes", "capacity": null, "name": "sd n totosari", "amenity": "school", "isced_level": null}},{"type": "Feature", "geometry": {"type":"Point","coordinates":[110.7796456,-7.5592828]}, "properties": {"osm_id": 3931643659, "osm_type": "nodes", "capacity": null, "name": "SMK BATIK 2", "amenity": "school", "isced_level": null}},{"type": "Feature", "geometry": {"type":"Point","coordinates":[110.7790626,-7.5587627]}, "properties": {"osm_id": 3931643658, "osm_type": "nodes", "capacity": null, "name": "SD N TUNGGULSARI 2", "amenity": "school", "isced_level": null}},{"type": "Feature", "geometry": {"type":"Point","coordinates":[110.7803715,-7.5587081]}, "properties": {"osm_id": 3931763737, "osm_type": "nodes", "capacity": null, "name": "sd n tunggulsari 1", "amenity": "school", "isced_level": null}},{"type": "Feature", "geometry": {"type":"Point","coordinates":[110.8354401,-7.5841208]}, "properties": {"osm_id": 9787199303, "osm_type": "nodes", "capacity": null, "name": "Asrama Putri 03 SMA MTA Surakarta", "amenity": "school", "isced_level": null}},{"type": "Feature", "geometry": {"type":"Point","coordinates":[110.8381548,-7.5756923]}, "properties": {"osm_id": 4533166989, "osm_type": "nodes", "capacity": null, "name": "MA Mu'alimin", "amenity": "school", "isced_level": null}},{"type": "Feature", "geometry": {"type":"Point","coordinates":[110.8376077,-7.5755398]}, "properties": {"osm_id": 4529444626, "osm_type": "nodes", "capacity": null, "name": "sd demangan no.195", "amenity": "school", "isced_level": null}},{"type": "Feature", "geometry": {"type":"Point","coordinates":[110.8420955,-7.5771155]}, "properties": {"osm_id": 9787199267, "osm_type": "nodes", "capacity": null, "name": "SD N Sawahan 02", "amenity": "school", "isced_level": null}},{"type": "Feature", "geometry": {"type":"Point","coordinates":[110.8090444,-7.5783005]}, "properties": {"osm_id": 4402101892, "osm_type": "nodes", "capacity": null, "name": null, "amenity": "school", "isced_level": null}},{"type": "Feature", "geometry": {"type":"Point","coordinates":[110.839421,-7.5793859]}, "properties": {"osm_id": 9787199273, "osm_type": "nodes", "capacity": null, "name": "Islamic Primary School Tjokroaminoto", "amenity": "school", "isced_level": null}},{"type": "Feature", "geometry": {"type":"Point","coordinates":[110.8158838,-7.5744862]}, "properties": {"osm_id": 4314109663, "osm_type": "nodes", "capacity": null, "name": "SMA Al Islam 1 Surakarta", "amenity": "school", "isced_level": null}},{"type": "Feature", "geometry": {"type":"Point","coordinates":[110.8318372,-7.5823]}, "properties": {"osm_id": 9787199314, "osm_type": "nodes", "capacity": null, "name": "SKB Surakarta", "amenity": "school", "isced_level": null}},{"type": "Feature", "geometry": {"type":"Point","coordinates":[110.8458867,-7.5626144]}, "properties": {"osm_id": 5922062386, "osm_type": "nodes", "capacity": null, "name": "SD Negeri Petoran", "amenity": "school", "isced_level": null}},{"type": "Feature", "geometry": {"type":"Point","coordinates":[110.8209373,-7.5683158]}, "properties": {"osm_id": 3931762386, "osm_type": "nodes", "capacity": null, "name": "SMPN 10 SURAKARTA", "amenity": "school", "isced_level": null}},{"type": "Feature", "geometry": {"type":"Point","coordinates":[110.80716,-7.5626679]}, "properties": {"osm_id": 9684860064, "osm_type": "nodes", "capacity": null, "name": "SDN Mangkubumen Kidul 16", "amenity": "school", "isced_level": null}},{"type": "Feature", "geometry": {"type":"Point","coordinates":[110.8132094,-7.5629593]}, "properties": {"osm_id": 4684718584, "osm_type": "nodes", "capacity": null, "name": "TK Al Firdaus", "amenity": "kindergarten", "isced_level": null}},{"type": "Feature", "geometry": {"type":"Point","coordinates":[110.8218521,-7.5645721]}, "properties": {"osm_id": 3931762450, "osm_type": "nodes", "capacity": null, "name": "SMA Muhammadiyah 1 Surakarta", "amenity": "school", "isced_level": null}},{"type": "Feature", "geometry": {"type":"Point","coordinates":[110.8230279,-7.5622462]}, "properties": {"osm_id": 4134668848, "osm_type": "nodes", "capacity": null, "name": "TPQ Al-Ikhlas", "amenity": "kindergarten", "isced_level": null}},{"type": "Feature", "geometry": {"type":"Point","coordinates":[110.7840124,-7.5661061]}, "properties": {"osm_id": 9781405000, "osm_type": "nodes", "capacity": null, "name": "SD N 01 Pajang", "amenity": "school", "isced_level": null}},{"type": "Feature", "geometry": {"type":"Point","coordinates":[110.8315789,-7.5818474]}, "properties": {"osm_id": 9787199313, "osm_type": "nodes", "capacity": null, "name": "SMP 06 Surakarta", "amenity": "school", "isced_level": null}},{"type": "Feature", "geometry": {"type":"Point","coordinates":[110.851721,-7.5558888]}, "properties": {"osm_id": 11078420949, "osm_type": "nodes", "capacity": null, "name": "AK-Tekstil Solo (Akademi Komunitas Industri Tekstil dan Produk Tekstil Surakarta)", "amenity": "university", "isced_level": null}},{"type": "Feature", "geometry": {"type":"Point","coordinates":[110.8337046,-7.5569051]}, "properties": {"osm_id": 9784408214, "osm_type": "nodes", "capacity": null, "name": "TK Bibis Wetan", "amenity": "kindergarten", "isced_level": null}},{"type": "Feature", "geometry": {"type":"Point","coordinates":[110.8335234,-7.5511253]}, "properties": {"osm_id": 9783253685, "osm_type": "nodes", "capacity": null, "name": "Universitas Tunas Pembangunan", "amenity": "university", "isced_level": null}},{"type": "Feature", "geometry": {"type":"Point","coordinates":[110.8525134,-7.5579398]}, "properties": {"osm_id": 13536027945, "osm_type": "nodes", "capacity": null, "name": "Institut Seni Indonesia Surakarta", "amenity": "university", "isced_level": null}},{"type": "Feature", "geometry": {"type":"Point","coordinates":[110.8217709,-7.5649646]}, "properties": {"osm_id": 3931762449, "osm_type": "nodes", "capacity": null, "name": "SD Muhammadiyah 1 Surakarta", "amenity": "school", "isced_level": null}},{"type": "Feature", "geometry": {"type":"Point","coordinates":[110.8336986,-7.5505762]}, "properties": {"osm_id": 9783253686, "osm_type": "nodes", "capacity": null, "name": "SLB C YSSD", "amenity": "school", "isced_level": null}},{"type": "Feature", "geometry": {"type":"Point","coordinates":[110.84584,-7.5353507]}, "properties": {"osm_id": 11182656477, "osm_type": "nodes", "capacity": null, "name": "SDN Sibela Timur", "amenity": "school", "isced_level": null}},{"type": "Feature", "geometry": {"type":"Point","coordinates":[110.8488724,-7.545549]}, "properties": {"osm_id": 7938730274, "osm_type": "nodes", "capacity": null, "name": "SMA N 8 SURAKARTA", "amenity": "school", "isced_level": null}},{"type": "Feature", "geometry": {"type":"Point","coordinates":[110.8359679,-7.5452528]}, "properties": {"osm_id": 9783253699, "osm_type": "nodes", "capacity": null, "name": "POLTEKKES Surakarta", "amenity": "university", "isced_level": null}},{"type": "Feature", "geometry": {"type":"Point","coordinates":[110.82994,-7.5490886]}, "properties": {"osm_id": 9783253675, "osm_type": "nodes", "capacity": null, "name": "Collage of Economics Atma Bakti", "amenity": "school", "isced_level": null}},{"type": "Feature", "geometry": {"type":"Point","coordinates":[110.8209531,-7.5321133]}, "properties": {"osm_id": 9201419782, "osm_type": "nodes", "capacity": null, "name": "SMP Muhammadiyah 2 Surakarta", "amenity": "school", "isced_level": null}},{"type": "Feature", "geometry": {"type":"Point","coordinates":[110.8258508,-7.54002]}, "properties": {"osm_id": 8117787744, "osm_type": "nodes", "capacity": null, "name": "MAN 1 SURAKARTA", "amenity": "school", "isced_level": null}},{"type": "Feature", "geometry": {"type":"Point","coordinates":[110.8269955,-7.5405045]}, "properties": {"osm_id": 8117845011, "osm_type": "nodes", "capacity": null, "name": null, "amenity": "school", "isced_level": null}},{"type": "Feature", "geometry": {"type":"Point","coordinates":[110.8265209,-7.5403402]}, "properties": {"osm_id": 8117845012, "osm_type": "nodes", "capacity": null, "name": "MAN 1 SURAKARTA Lokal timur", "amenity": "school", "isced_level": null}},{"type": "Feature", "geometry": {"type":"Point","coordinates":[110.8197905,-7.542381]}, "properties": {"osm_id": 9783077684, "osm_type": "nodes", "capacity": null, "name": "SD N 02 Prawit, Surakarta", "amenity": "school", "isced_level": null}},{"type": "Feature", "geometry": {"type":"Point","coordinates":[110.8334739,-7.5467985]}, "properties": {"osm_id": 9783253693, "osm_type": "nodes", "capacity": null, "name": "KB/TK Aisyiah Al-Amin Bibis Luhur Surakarta", "amenity": "kindergarten", "isced_level": null}},{"type": "Feature", "geometry": {"type":"Point","coordinates":[110.8211006,-7.5678458]}, "properties": {"osm_id": 3931762385, "osm_type": "nodes", "capacity": null, "name": "SMP N 3 SURAKARTA", "amenity": "school", "isced_level": null}},{"type": "Feature", "geometry": {"type":"Point","coordinates":[110.8215927,-7.5683829]}, "properties": {"osm_id": 3931762387, "osm_type": "nodes", "capacity": null, "name": "SMPN 5 SURAKARTA", "amenity": "school", "isced_level": null}},{"type": "Feature", "geometry": {"type":"Point","coordinates":[110.8109692,-7.5738099]}, "properties": {"osm_id": 9816687250, "osm_type": "nodes", "capacity": null, "name": "IELC Interactive English Language Center Surakarta", "amenity": "language_school", "isced_level": null}},{"type": "Feature", "geometry": {"type":"Point","coordinates":[110.8185067,-7.5560091]}, "properties": {"osm_id": 4068234526, "osm_type": "nodes", "capacity": null, "name": "SDN Cindirejo", "amenity": "school", "isced_level": null}},{"type": "Feature", "geometry": {"type":"Point","coordinates":[110.8141827,-7.5508988]}, "properties": {"osm_id": 9789389251, "osm_type": "nodes", "capacity": null, "name": "SMP Al-Azhar Syifa Budi Surakarta", "amenity": "school", "isced_level": null}},{"type": "Feature", "geometry": {"type":"Point","coordinates":[110.8180955,-7.5521163]}, "properties": {"osm_id": 4052305106, "osm_type": "nodes", "capacity": null, "name": "SDN Tirtoyoso", "amenity": "school", "isced_level": null}},{"type": "Feature", "geometry": {"type":"Point","coordinates":[110.8100884,-7.5573328]}, "properties": {"osm_id": 9789389219, "osm_type": "nodes", "capacity": null, "name": "TK Kasih Bunda Manahan", "amenity": "kindergarten", "isced_level": null}},{"type": "Feature", "geometry": {"type":"Point","coordinates":[110.8069049,-7.55367]}, "properties": {"osm_id": 9789278004, "osm_type": "nodes", "capacity": null, "name": "UNS Kampus Manahan", "amenity": "university", "isced_level": null}},{"type": "Feature", "geometry": {"type":"Point","coordinates":[110.811415,-7.5496799]}, "properties": {"osm_id": 9783077669, "osm_type": "nodes", "capacity": null, "name": "SMP Muhammadiyah 04 Surakarta", "amenity": "school", "isced_level": null}},{"type": "Feature", "geometry": {"type":"Point","coordinates":[110.8030224,-7.5335679]}, "properties": {"osm_id": 9780831651, "osm_type": "nodes", "capacity": null, "name": "TKII Al-Abidin", "amenity": "kindergarten", "isced_level": null}},{"type": "Feature", "geometry": {"type":"Point","coordinates":[110.8301539,-7.5582923]}, "properties": {"osm_id": 8756956801, "osm_type": "nodes", "capacity": null, "name": "SMA Negeri 2 Surakarta", "amenity": "school", "isced_level": null}},{"type": "Feature", "geometry": {"type":"Point","coordinates":[110.8304987,-7.5584]}, "properties": {"osm_id": 2059178825, "osm_type": "nodes", "capacity": null, "name": "SMA Negeri 1 Surakarta", "amenity": "school", "isced_level": null}},{"type": "Feature", "geometry": {"type":"Point","coordinates":[110.849424,-7.5569976]}, "properties": {"osm_id": 9784586733, "osm_type": "nodes", "capacity": null, "name": "Universitas Aisyiyah Surakarta", "amenity": "university", "isced_level": null}},{"type": "Feature", "geometry": {"type":"Point","coordinates":[110.8329005,-7.5518516]}, "properties": {"osm_id": 9783253681, "osm_type": "nodes", "capacity": null, "name": "SLB E Bina Putera", "amenity": "school", "isced_level": null}},{"type": "Feature", "geometry": {"type":"Point","coordinates":[110.831637,-7.5500465]}, "properties": {"osm_id": 9783253679, "osm_type": "nodes", "capacity": null, "name": "SMA N 06 Surakarta", "amenity": "school", "isced_level": null}},{"type": "Feature", "geometry": {"type":"Point","coordinates":[110.8063212,-7.537684]}, "properties": {"osm_id": 9780831663, "osm_type": "nodes", "capacity": null, "name": "SMA Al-Abidin", "amenity": "school", "isced_level": null}},{"type": "Feature", "geometry": {"type":"Point","coordinates":[110.8060784,-7.5380484]}, "properties": {"osm_id": 9780831662, "osm_type": "nodes", "capacity": null, "name": "SMP Al-Abidin", "amenity": "school", "isced_level": null}},{"type": "Feature", "geometry": {"type":"Point","coordinates":[110.8065858,-7.5386785]}, "properties": {"osm_id": 9780831661, "osm_type": "nodes", "capacity": null, "name": "SD Tahfidzul Qur'an", "amenity": "school", "isced_level": null}},{"type": "Feature", "geometry": {"type":"Point","coordinates":[110.8088369,-7.5424592]}, "properties": {"osm_id": 9781009783, "osm_type": "nodes", "capacity": null, "name": "SD N 01 Banyuanyar", "amenity": "school", "isced_level": null}},{"type": "Feature", "geometry": {"type":"Point","coordinates":[110.8105873,-7.5420186]}, "properties": {"osm_id": 9781009779, "osm_type": "nodes", "capacity": null, "name": "SD N Tempel Surakarta", "amenity": "school", "isced_level": null}},{"type": "Feature", "geometry": {"type":"Point","coordinates":[110.8120859,-7.5401431]}, "properties": {"osm_id": 9781009775, "osm_type": "nodes", "capacity": null, "name": "SDICT Al-Abidin", "amenity": "school", "isced_level": null}},{"type": "Feature", "geometry": {"type":"Point","coordinates":[110.8043513,-7.5398266]}, "properties": {"osm_id": 9781009785, "osm_type": "nodes", "capacity": null, "name": "SMA Muhammadiyah 06", "amenity": "school", "isced_level": null}},{"type": "Feature", "geometry": {"type":"Point","coordinates":[110.8114788,-7.5391315]}, "properties": {"osm_id": 9781009772, "osm_type": "nodes", "capacity": null, "name": "Interational Islamic Primary School", "amenity": "school", "isced_level": null}},{"type": "Feature", "geometry": {"type":"Point","coordinates":[110.8129229,-7.5408045]}, "properties": {"osm_id": 9783077646, "osm_type": "nodes", "capacity": null, "name": "TK Kristen Kadipiro", "amenity": "kindergarten", "isced_level": null}},{"type": "Feature", "geometry": {"type":"Point","coordinates":[110.8158915,-7.5410368]}, "properties": {"osm_id": 9783077651, "osm_type": "nodes", "capacity": null, "name": "PAUD Al-Dercy Surakarta", "amenity": "kindergarten", "isced_level": null}},{"type": "Feature", "geometry": {"type":"Point","coordinates":[110.8091947,-7.5443155]}, "properties": {"osm_id": 9781009780, "osm_type": "nodes", "capacity": null, "name": "SD N 02 Banyuanyar", "amenity": "school", "isced_level": null}},{"type": "Feature", "geometry": {"type":"Point","coordinates":[110.8002617,-7.5419059]}, "properties": {"osm_id": 9783077618, "osm_type": "nodes", "capacity": null, "name": "SMP Muhammadiyah Program Khusus", "amenity": "school", "isced_level": null}},{"type": "Feature", "geometry": {"type":"Point","coordinates":[110.8003468,-7.540814]}, "properties": {"osm_id": 9783077621, "osm_type": "nodes", "capacity": null, "name": "SMK PGRI 01 Surakarta", "amenity": "school", "isced_level": null}},{"type": "Feature", "geometry": {"type":"Point","coordinates":[110.800601,-7.534196]}, "properties": {"osm_id": 9780831648, "osm_type": "nodes", "capacity": null, "name": "TK At-Thoyyibah", "amenity": "kindergarten", "isced_level": null}},{"type": "Feature", "geometry": {"type":"Polygon","coordinates":[[[110.8055915,-7.5685027],[110.8058584,-7.5685621],[110.8058176,-7.5687835],[110.8063922,-7.5689077],[110.8065638,-7.5680653],[110.805665,-7.5679222],[110.8055915,-7.5685027]]]}, "properties": {"osm_id": 174045278, "osm_type": "ways_poly", "capacity": null, "name": "Yayasan Murni (SMA SMK)", "amenity": "school", "isced_level": null}},{"type": "Feature", "geometry": {"type":"Polygon","coordinates":[[[110.8215003,-7.5809828],[110.8215471,-7.5810025],[110.8219306,-7.5811037],[110.8219628,-7.58102],[110.8218843,-7.5809962],[110.8218973,-7.5809509],[110.8216739,-7.5808878],[110.8217175,-7.5807321],[110.8220392,-7.5808232],[110.8220714,-7.5807116],[110.8217488,-7.5806202],[110.8217491,-7.5806191],[110.8216126,-7.5805816],[110.8215805,-7.5806933],[110.8215813,-7.5806935],[110.8215003,-7.5809828]]]}, "properties": {"osm_id": 535209551, "osm_type": "ways_poly", "capacity": null, "name": "SMP Kalam Kudus Surakarta", "amenity": "school", "isced_level": null}},{"type": "Feature", "geometry": {"type":"Polygon","coordinates":[[[110.8105003,-7.5819482],[110.810743,-7.5823243],[110.8108608,-7.5822285],[110.8106181,-7.5818688],[110.8105003,-7.5819482]]]}, "properties": {"osm_id": 346306738, "osm_type": "ways_poly", "capacity": null, "name": null, "amenity": "school", "isced_level": null}},{"type": "Feature", "geometry": {"type":"Polygon","coordinates":[[[110.8286641,-7.5677654],[110.8289103,-7.5678316],[110.8289337,-7.5677458],[110.8287588,-7.5676988],[110.8287937,-7.5675713],[110.8290912,-7.5676513],[110.8289788,-7.5680621],[110.8289225,-7.5680469],[110.828972,-7.5678659],[110.8287991,-7.5678194],[110.8287411,-7.5680311],[110.8288559,-7.568062],[110.8288347,-7.5681397],[110.8290761,-7.5682046],[110.829264,-7.5675182],[110.8291848,-7.5674969],[110.829211,-7.5674012],[110.8291064,-7.5673731],[110.8290684,-7.567512],[110.8287835,-7.5674354],[110.8287485,-7.5675633],[110.8287214,-7.567556],[110.8286641,-7.5677654]]]}, "properties": {"osm_id": 554232323, "osm_type": "ways_poly", "capacity": null, "name": "SD Marsudirini Surakarta", "amenity": "school", "isced_level": null}},{"type": "Feature", "geometry": {"type":"Polygon","coordinates":[[[110.8245803,-7.5784191],[110.8251084,-7.5784934],[110.82521,-7.5779897],[110.8246928,-7.5779172],[110.8245803,-7.5784191]]]}, "properties": {"osm_id": 345950975, "osm_type": "ways_poly", "capacity": null, "name": "SMK Kasatriyan Kraton Surakarta", "amenity": "school", "isced_level": null}},{"type": "Feature", "geometry": {"type":"Polygon","coordinates":[[[110.8184107,-7.586129],[110.8185769,-7.586129],[110.8188988,-7.5862141],[110.8191027,-7.5857674],[110.819098,-7.5856815],[110.8190087,-7.5856079],[110.8189491,-7.5855685],[110.8188774,-7.5855308],[110.8188251,-7.5855508],[110.8186521,-7.5856598],[110.8184428,-7.5856836],[110.8184107,-7.586129]]]}, "properties": {"osm_id": 346251541, "osm_type": "ways_poly", "capacity": null, "name": null, "amenity": "school", "isced_level": null}},{"type": "Feature", "geometry": {"type":"Polygon","coordinates":[[[110.8371091,-7.5661721],[110.8373486,-7.5662576],[110.8374275,-7.5660404],[110.8372426,-7.5659744],[110.8373182,-7.5657665],[110.8372636,-7.565747],[110.8371091,-7.5661721]]]}, "properties": {"osm_id": 580004955, "osm_type": "ways_poly", "capacity": null, "name": "SMA Widya Wacana Surakarta", "amenity": "school", "isced_level": null}},{"type": "Feature", "geometry": {"type":"Polygon","coordinates":[[[110.8098573,-7.5752874],[110.8100639,-7.575314],[110.8100782,-7.5752043],[110.8098717,-7.5751777],[110.8098573,-7.5752874]]]}, "properties": {"osm_id": 580017461, "osm_type": "ways_poly", "capacity": null, "name": "SMA Negeri 7 Surakarta", "amenity": "school", "isced_level": null}},{"type": "Feature", "geometry": {"type":"Polygon","coordinates":[[[110.8092789,-7.5844151],[110.8093985,-7.584486],[110.8094529,-7.5845092],[110.809872,-7.5845013],[110.8100421,-7.583835],[110.8102161,-7.5838154],[110.8102872,-7.5837684],[110.8105482,-7.5838036],[110.8109318,-7.5839173],[110.8106549,-7.5851078],[110.8108806,-7.5851673],[110.8112214,-7.5839632],[110.8110227,-7.5839251],[110.8112521,-7.5834117],[110.8107776,-7.5833098],[110.8104059,-7.5832157],[110.8101291,-7.583247],[110.8099129,-7.5832647],[110.809557,-7.5831746],[110.8095254,-7.5832961],[110.8096835,-7.5833314],[110.8096809,-7.5833677],[110.8096796,-7.5833862],[110.8096321,-7.583688],[110.8095728,-7.5839232],[110.8093909,-7.5838527],[110.809296,-7.5841859],[110.8093316,-7.5842055],[110.8092789,-7.5844151]]]}, "properties": {"osm_id": 349678236, "osm_type": "ways_poly", "capacity": null, "name": null, "amenity": "school", "isced_level": null}},{"type": "Feature", "geometry": {"type":"Polygon","coordinates":[[[110.8115179,-7.5661193],[110.8120813,-7.5662549],[110.8122409,-7.5651508],[110.8117068,-7.5650249],[110.8115179,-7.5661193]]]}, "properties": {"osm_id": 336012907, "osm_type": "ways_poly", "capacity": null, "name": null, "amenity": "school", "isced_level": null}},{"type": "Feature", "geometry": {"type":"Polygon","coordinates":[[[110.8285737,-7.571486],[110.8290296,-7.5716422],[110.8290646,-7.5715419],[110.8286087,-7.5713857],[110.8285737,-7.571486]]]}, "properties": {"osm_id": 665219167, "osm_type": "ways_poly", "capacity": null, "name": "SMP Muhammadiyah 1 Surakarta", "amenity": "school", "isced_level": null}},{"type": "Feature", "geometry": {"type":"Polygon","coordinates":[[[110.8076165,-7.5735289],[110.8078203,-7.5735396],[110.8078292,-7.5733724],[110.8076254,-7.5733618],[110.8076165,-7.5735289]]]}, "properties": {"osm_id": 580030131, "osm_type": "ways_poly", "capacity": null, "name": "TA-TK Al-Azhar Syifa Budi Solo", "amenity": "school", "isced_level": null}},{"type": "Feature", "geometry": {"type":"Polygon","coordinates":[[[110.8067169,-7.5636349],[110.8073128,-7.5637986],[110.8073441,-7.5636864],[110.8067483,-7.5635227],[110.8067169,-7.5636349]]]}, "properties": {"osm_id": 580026486, "osm_type": "ways_poly", "capacity": null, "name": "SMP Negeri 24 Surakarta", "amenity": "school", "isced_level": null}},{"type": "Feature", "geometry": {"type":"Polygon","coordinates":[[[110.8057939,-7.5692571],[110.8058401,-7.5692895],[110.805842,-7.5693869],[110.8058343,-7.5695702],[110.8059672,-7.5695721],[110.8059692,-7.5696656],[110.806156,-7.5696427],[110.8061598,-7.5695664],[110.8064063,-7.5696103],[110.806441,-7.5692495],[110.8063794,-7.569238],[110.8064121,-7.5690318],[110.8058883,-7.5689287],[110.8058497,-7.5689154],[110.8058324,-7.5690184],[110.8057939,-7.5692571]]]}, "properties": {"osm_id": 174045277, "osm_type": "ways_poly", "capacity": null, "name": "FK FKG UMS", "amenity": "university", "isced_level": null}},{"type": "Feature", "geometry": {"type":"Polygon","coordinates":[[[110.837997,-7.5758227],[110.8381634,-7.575892],[110.8382841,-7.5756073],[110.838166,-7.5755581],[110.8381177,-7.575538],[110.8381166,-7.5755405],[110.8380842,-7.5756169],[110.8380385,-7.5757249],[110.837997,-7.5758227]]]}, "properties": {"osm_id": 410986216, "osm_type": "ways_poly", "capacity": null, "name": "MA mu'allimin-Muhammadiyah", "amenity": "school", "isced_level": null}},{"type": "Feature", "geometry": {"type":"Polygon","coordinates":[[[110.84181,-7.5770708],[110.8423591,-7.5772652],[110.8424425,-7.577097],[110.8422431,-7.5769064],[110.8419046,-7.5767836],[110.84181,-7.5770708]]]}, "properties": {"osm_id": 457994397, "osm_type": "ways_poly", "capacity": null, "name": "SD 2 Sawahan", "amenity": "school", "isced_level": null}},{"type": "Feature", "geometry": {"type":"Polygon","coordinates":[[[110.8119603,-7.5669713],[110.8120258,-7.5669894],[110.8121859,-7.5665024],[110.8124042,-7.566571],[110.812255,-7.5670868],[110.8123642,-7.5671048],[110.8125861,-7.5663004],[110.8121677,-7.566203],[110.8119603,-7.5669713]]]}, "properties": {"osm_id": 329885268, "osm_type": "ways_poly", "capacity": null, "name": null, "amenity": "school", "isced_level": null}},{"type": "Feature", "geometry": {"type":"Polygon","coordinates":[[[110.8154233,-7.5809706],[110.815498,-7.5810121],[110.8155459,-7.5809272],[110.8154712,-7.5808857],[110.8154233,-7.5809706]]]}, "properties": {"osm_id": 534584418, "osm_type": "ways_poly", "capacity": null, "name": "SD Al Islam 2 Jamsaren", "amenity": "school", "isced_level": null}},{"type": "Feature", "geometry": {"type":"Polygon","coordinates":[[[110.829252,-7.5775467],[110.8294317,-7.577576],[110.8294561,-7.5774289],[110.8292764,-7.5773997],[110.829252,-7.5775467]]]}, "properties": {"osm_id": 580026327, "osm_type": "ways_poly", "capacity": null, "name": "Pusdiktop TNI AD Baluwarti Surakarta", "amenity": "school", "isced_level": null}},{"type": "Feature", "geometry": {"type":"Polygon","coordinates":[[[110.8372853,-7.5756039],[110.8377486,-7.5757351],[110.837812,-7.5754699],[110.8373653,-7.575336],[110.8372853,-7.5756039]]]}, "properties": {"osm_id": 457121809, "osm_type": "ways_poly", "capacity": null, "name": "SD Demangan", "amenity": "school", "isced_level": null}},{"type": "Feature", "geometry": {"type":"Polygon","coordinates":[[[110.8284069,-7.5679684],[110.8284954,-7.5680003],[110.8285788,-7.5677729],[110.8284903,-7.567741],[110.8284069,-7.5679684]]]}, "properties": {"osm_id": 554232316, "osm_type": "ways_poly", "capacity": null, "name": "Taman Kanak - Kanak Marsudirini Surakarta", "amenity": "school", "isced_level": null}},{"type": "Feature", "geometry": {"type":"Polygon","coordinates":[[[110.8250813,-7.5833187],[110.8254863,-7.5833879],[110.8255534,-7.5831379],[110.8254219,-7.5831114],[110.8254568,-7.583021],[110.8251913,-7.5829279],[110.8251323,-7.5830821],[110.8250813,-7.5833187]]]}, "properties": {"osm_id": 346247420, "osm_type": "ways_poly", "capacity": null, "name": null, "amenity": "school", "isced_level": null}},{"type": "Feature", "geometry": {"type":"Polygon","coordinates":[[[110.8236198,-7.5703416],[110.8241359,-7.5704612],[110.8242766,-7.5699131],[110.823745,-7.5697894],[110.8236198,-7.5703416]]]}, "properties": {"osm_id": 329891283, "osm_type": "ways_poly", "capacity": null, "name": "SMP Pangudi Luhur Bintang Laut Surakarta", "amenity": "school", "isced_level": null}},{"type": "Feature", "geometry": {"type":"Polygon","coordinates":[[[110.8192547,-7.573302],[110.8193295,-7.573324],[110.8193657,-7.573203],[110.8192909,-7.573181],[110.8192547,-7.573302]]]}, "properties": {"osm_id": 535418466, "osm_type": "ways_poly", "capacity": null, "name": "EF English First Solo", "amenity": "language_school", "isced_level": null}},{"type": "Feature", "geometry": {"type":"Polygon","coordinates":[[[110.8282413,-7.5684166],[110.8283566,-7.5684485],[110.8283589,-7.5684405],[110.8290029,-7.5685715],[110.8290026,-7.5685732],[110.8290954,-7.5685903],[110.8291163,-7.568489],[110.8291145,-7.5684887],[110.8291327,-7.5683913],[110.8290399,-7.5683742],[110.829022,-7.5684698],[110.828387,-7.5683407],[110.8284286,-7.568193],[110.8283132,-7.5681611],[110.8282694,-7.5683168],[110.8282623,-7.5683153],[110.8282413,-7.5684166]]]}, "properties": {"osm_id": 554232319, "osm_type": "ways_poly", "capacity": null, "name": "SD Pangudi Luhur Surakarta", "amenity": "school", "isced_level": null}},{"type": "Feature", "geometry": {"type":"Polygon","coordinates":[[[110.8267622,-7.5679673],[110.8270278,-7.5680364],[110.8270465,-7.567962],[110.8267864,-7.5678928],[110.8267622,-7.5679673]]]}, "properties": {"osm_id": 648353764, "osm_type": "ways_poly", "capacity": null, "name": "SMP Kanisius 1 Surakarta", "amenity": "school", "isced_level": null}},{"type": "Feature", "geometry": {"type":"Polygon","coordinates":[[[110.8244153,-7.5704617],[110.8244731,-7.5704865],[110.8245429,-7.570327],[110.8244851,-7.5703021],[110.8244153,-7.5704617]]]}, "properties": {"osm_id": 535448440, "osm_type": "ways_poly", "capacity": null, "name": "PAUD Aisyah Keprabon", "amenity": "kindergarten", "isced_level": null}},{"type": "Feature", "geometry": {"type":"Polygon","coordinates":[[[110.8427789,-7.5763604],[110.8428575,-7.5764124],[110.8429376,-7.5762871],[110.8428544,-7.5762398],[110.8427789,-7.5763604]]]}, "properties": {"osm_id": 456721671, "osm_type": "ways_poly", "capacity": null, "name": "SD Muh. 18 Sangkrah", "amenity": "school", "isced_level": null}},{"type": "Feature", "geometry": {"type":"Polygon","coordinates":[[[110.8155543,-7.5795098],[110.8156394,-7.5795326],[110.8156557,-7.5794718],[110.8157252,-7.5792304],[110.8156415,-7.5792067],[110.8155543,-7.5795098]]]}, "properties": {"osm_id": 534574420, "osm_type": "ways_poly", "capacity": null, "name": null, "amenity": "school", "isced_level": null}},{"type": "Feature", "geometry": {"type":"Polygon","coordinates":[[[110.8167505,-7.5725216],[110.816839,-7.5725346],[110.8168658,-7.5723551],[110.8167774,-7.5723421],[110.8167505,-7.5725216]]]}, "properties": {"osm_id": 535326695, "osm_type": "ways_poly", "capacity": null, "name": "I Can Read Honggowongso Square", "amenity": "language_school", "isced_level": null}},{"type": "Feature", "geometry": {"type":"Polygon","coordinates":[[[110.8168019,-7.5640008],[110.8169666,-7.5640326],[110.8170402,-7.5636575],[110.8168754,-7.5636258],[110.8168019,-7.5640008]]]}, "properties": {"osm_id": 535531174, "osm_type": "ways_poly", "capacity": null, "name": "SD Al Firdaus", "amenity": "school", "isced_level": null}},{"type": "Feature", "geometry": {"type":"Polygon","coordinates":[[[110.8157998,-7.5794767],[110.8158669,-7.5795045],[110.8159467,-7.5793149],[110.8158797,-7.5792871],[110.8157998,-7.5794767]]]}, "properties": {"osm_id": 534574422, "osm_type": "ways_poly", "capacity": null, "name": null, "amenity": "school", "isced_level": null}},{"type": "Feature", "geometry": {"type":"Polygon","coordinates":[[[110.8150312,-7.5799968],[110.8152578,-7.5800876],[110.8152974,-7.5799905],[110.8151101,-7.5799155],[110.8150708,-7.5798997],[110.8150641,-7.5799162],[110.8150312,-7.5799968]]]}, "properties": {"osm_id": 534574355, "osm_type": "ways_poly", "capacity": null, "name": null, "amenity": "school", "isced_level": null}},{"type": "Feature", "geometry": {"type":"Polygon","coordinates":[[[110.8149876,-7.5798867],[110.8150641,-7.5799162],[110.8150708,-7.5798997],[110.8151101,-7.5799155],[110.8152675,-7.5795147],[110.8151514,-7.5794699],[110.8149876,-7.5798867]]]}, "properties": {"osm_id": 534574356, "osm_type": "ways_poly", "capacity": null, "name": "SD Negeri Kemasan 2", "amenity": "school", "isced_level": null}},{"type": "Feature", "geometry": {"type":"Polygon","coordinates":[[[110.8276034,-7.5862635],[110.8276843,-7.5862837],[110.8276999,-7.5862223],[110.8278295,-7.5862594],[110.8278495,-7.5861907],[110.8277054,-7.5861493],[110.8277051,-7.58615],[110.8276366,-7.5861329],[110.8276034,-7.5862635]]]}, "properties": {"osm_id": 536464034, "osm_type": "ways_poly", "capacity": null, "name": "SD Muhammadiyah 7 Joyosuran Surakarta", "amenity": "school", "isced_level": null}},{"type": "Feature", "geometry": {"type":"Polygon","coordinates":[[[110.8369111,-7.5783935],[110.8373362,-7.5784879],[110.8375226,-7.578101],[110.8375307,-7.5780864],[110.8375065,-7.5779734],[110.8369614,-7.5779895],[110.8369111,-7.5783935]]]}, "properties": {"osm_id": 671002922, "osm_type": "ways_poly", "capacity": null, "name": "SMA", "amenity": "school", "isced_level": null}},{"type": "Feature", "geometry": {"type":"Polygon","coordinates":[[[110.8052485,-7.5580173],[110.8060024,-7.558489],[110.8062564,-7.5580899],[110.8061007,-7.5579925],[110.8062072,-7.5578252],[110.8056089,-7.5574511],[110.8052485,-7.5580173]]]}, "properties": {"osm_id": 636440734, "osm_type": "ways_poly", "capacity": null, "name": "SD Kristen Kalam Surakarta", "amenity": "school", "isced_level": null}},{"type": "Feature", "geometry": {"type":"Polygon","coordinates":[[[110.8394303,-7.58478],[110.8394712,-7.5847884],[110.8395177,-7.5845634],[110.8394768,-7.5845551],[110.8394303,-7.58478]]]}, "properties": {"osm_id": 531933220, "osm_type": "ways_poly", "capacity": null, "name": "MI Ahmad Maryam", "amenity": "school", "isced_level": null}},{"type": "Feature", "geometry": {"type":"Polygon","coordinates":[[[110.8393478,-7.5846166],[110.8394377,-7.5846361],[110.8394583,-7.5845427],[110.8393684,-7.5845232],[110.8393478,-7.5846166]]]}, "properties": {"osm_id": 535111744, "osm_type": "ways_poly", "capacity": null, "name": "MI Ahmad Maryam", "amenity": "school", "isced_level": null}},{"type": "Feature", "geometry": {"type":"Polygon","coordinates":[[[110.8391738,-7.5848499],[110.8394641,-7.5848784],[110.8394715,-7.5848046],[110.8394567,-7.5848032],[110.8391811,-7.584776],[110.8391738,-7.5848499]]]}, "properties": {"osm_id": 531933218, "osm_type": "ways_poly", "capacity": null, "name": "MI Ahmad Maryam", "amenity": "school", "isced_level": null}},{"type": "Feature", "geometry": {"type":"Polygon","coordinates":[[[110.8296212,-7.5485484],[110.8296785,-7.5485853],[110.8296324,-7.548817],[110.8298501,-7.5488548],[110.8299625,-7.5483961],[110.8302431,-7.5484587],[110.8302521,-7.5483359],[110.8300317,-7.5482476],[110.830054,-7.5481422],[110.8298877,-7.5481076],[110.8298333,-7.5483647],[110.8296617,-7.5484139],[110.8296212,-7.5485484]]]}, "properties": {"osm_id": 579817786, "osm_type": "ways_poly", "capacity": null, "name": "Universitas Bina Sarana Informatika Kampus Surakarta", "amenity": "university", "isced_level": null}},{"type": "Feature", "geometry": {"type":"Polygon","coordinates":[[[110.8044184,-7.558488],[110.8047253,-7.558488],[110.804751,-7.557869],[110.8044506,-7.5576904],[110.8044433,-7.5578718],[110.8044238,-7.5583545],[110.8044184,-7.558488]]]}, "properties": {"osm_id": 1445807841, "osm_type": "ways_poly", "capacity": null, "name": "SDN Manahan Surakarta", "amenity": "school", "isced_level": null}},{"type": "Feature", "geometry": {"type":"Polygon","coordinates":[[[110.8527227,-7.5567106],[110.8527723,-7.5574086],[110.8531478,-7.5581185],[110.8532363,-7.5584602],[110.8532645,-7.5586224],[110.8533865,-7.5588152],[110.8537251,-7.5591116],[110.8539766,-7.5593044],[110.8541459,-7.5593885],[110.8538666,-7.5601207],[110.8536145,-7.5608333],[110.8535716,-7.5610114],[110.8535394,-7.5611443],[110.8535179,-7.561272],[110.8534911,-7.5614634],[110.8534992,-7.5616096],[110.8535609,-7.5617984],[110.8535743,-7.5620191],[110.8534046,-7.5627516],[110.853867,-7.5629992],[110.8543284,-7.5626304],[110.854467,-7.5626448],[110.854587,-7.5624873],[110.8548974,-7.5625193],[110.8551192,-7.5622278],[110.855134,-7.5621281],[110.8550394,-7.5620537],[110.8551621,-7.561835],[110.8553975,-7.5619168],[110.8555229,-7.5619639],[110.8555377,-7.5619234],[110.8557288,-7.5619919],[110.8556932,-7.5624858],[110.855644,-7.5632924],[110.8555524,-7.563423],[110.8553392,-7.5636636],[110.8552004,-7.5641582],[110.855948,-7.5645251],[110.8564979,-7.5635816],[110.8568173,-7.563575],[110.8568824,-7.5635267],[110.8569336,-7.5629848],[110.8569993,-7.5628535],[110.8573066,-7.5626785],[110.8576316,-7.562422],[110.8578347,-7.5625776],[110.8575832,-7.5628117],[110.8575858,-7.562824],[110.8576486,-7.5628587],[110.8576536,-7.5628588],[110.8576584,-7.562857],[110.8578547,-7.5627624],[110.8582386,-7.562642],[110.8582547,-7.562628],[110.858248,-7.562386],[110.8583057,-7.5622076],[110.8583185,-7.5621944],[110.8588743,-7.5620962],[110.8591224,-7.562075],[110.8595207,-7.5617599],[110.8596037,-7.5615682],[110.8597702,-7.5614222],[110.8597876,-7.5612773],[110.8597849,-7.5609516],[110.8596039,-7.560122],[110.8595569,-7.5595703],[110.8598225,-7.5589481],[110.8599579,-7.5586343],[110.8600733,-7.5583698],[110.8602222,-7.558072],[110.8604877,-7.5575442],[110.8606137,-7.5572597],[110.8605359,-7.5571041],[110.8604676,-7.5568303],[110.8601953,-7.5565538],[110.8590192,-7.5555287],[110.8582869,-7.5549624],[110.8576365,-7.5544692],[110.8571134,-7.5542684],[110.8567862,-7.5543163],[110.8567648,-7.5543256],[110.8550052,-7.5555088],[110.8540061,-7.5564887],[110.8535823,-7.5566841],[110.8527227,-7.5567106]]]}, "properties": {"osm_id": 922847976, "osm_type": "ways_poly", "capacity": null, "name": "Universitas Sebelas Maret (UNS)", "amenity": "university", "isced_level": null}},{"type": "Feature", "geometry": {"type":"Polygon","coordinates":[[[110.8554447,-7.5609665],[110.8554465,-7.5609748],[110.855634,-7.5612476],[110.8556496,-7.5612547],[110.8556703,-7.5612554],[110.8558742,-7.561242],[110.8558843,-7.56124],[110.8559275,-7.5611286],[110.8559237,-7.561114],[110.8557784,-7.560878],[110.8557683,-7.5608668],[110.8557587,-7.5608616],[110.85556,-7.5608504],[110.8555497,-7.5608495],[110.8555426,-7.5608525],[110.8554481,-7.5609596],[110.8554447,-7.5609665]]]}, "properties": {"osm_id": 1074571973, "osm_type": "ways_poly", "capacity": null, "name": "Lembah Teknik UNS", "amenity": "college", "isced_level": null}},{"type": "Feature", "geometry": {"type":"Polygon","coordinates":[[[110.8552576,-7.5640481],[110.8553678,-7.5641122],[110.8554933,-7.5641851],[110.855557,-7.5640775],[110.8556209,-7.5641146],[110.8557621,-7.5638757],[110.8554624,-7.5637016],[110.8553725,-7.5638537],[110.8552576,-7.5640481]]]}, "properties": {"osm_id": 1074582353, "osm_type": "ways_poly", "capacity": null, "name": "UNS Tower", "amenity": null, "isced_level": null}},{"type": "Feature", "geometry": {"type":"Polygon","coordinates":[[[110.825544,-7.562091],[110.8262889,-7.5621662],[110.8263332,-7.5615736],[110.8258476,-7.5615297],[110.8255942,-7.5617368],[110.825544,-7.562091]]]}, "properties": {"osm_id": 1416534820, "osm_type": "ways_poly", "capacity": null, "name": "SMP Widya Wacana Surakarta", "amenity": "school", "isced_level": null}},{"type": "Feature", "geometry": {"type":"Polygon","coordinates":[[[110.8283571,-7.5606568],[110.8288757,-7.5607037],[110.8289432,-7.5599699],[110.8284246,-7.559923],[110.8283571,-7.5606568]]]}, "properties": {"osm_id": 1219892662, "osm_type": "ways_poly", "capacity": null, "name": "SMP Negeri 4 Surakarta", "amenity": "school", "isced_level": null}},{"type": "Feature", "geometry": {"type":"Polygon","coordinates":[[[110.8257022,-7.5401892],[110.8259543,-7.5402424],[110.8259597,-7.5401041],[110.8261992,-7.5401551],[110.8262545,-7.5398446],[110.8257802,-7.5397448],[110.8257022,-7.5401892]]]}, "properties": {"osm_id": 871540426, "osm_type": "ways_poly", "capacity": null, "name": "MAN 1 SURAKARTA", "amenity": "school", "isced_level": null}},{"type": "Feature", "geometry": {"type":"Polygon","coordinates":[[[110.8263803,-7.5406291],[110.8266114,-7.5406689],[110.8266867,-7.5399119],[110.8264154,-7.5398546],[110.8264204,-7.5399667],[110.8264179,-7.540268],[110.8263803,-7.5406291]]]}, "properties": {"osm_id": 871554606, "osm_type": "ways_poly", "capacity": null, "name": "MAN 1 SURAKARTA Lokal Timur", "amenity": "school", "isced_level": null}},{"type": "Feature", "geometry": {"type":"Polygon","coordinates":[[[110.8278053,-7.5601348],[110.8280373,-7.560149],[110.8280424,-7.5600675],[110.8281181,-7.5600722],[110.8281226,-7.5600008],[110.8280445,-7.559996],[110.8280502,-7.5599063],[110.8278205,-7.5598922],[110.8278053,-7.5601348]]]}, "properties": {"osm_id": 486934807, "osm_type": "ways_poly", "capacity": null, "name": "Dinas Pendidikan Kota Surakarta", "amenity": "school", "isced_level": null}},{"type": "Feature", "geometry": {"type":"Polygon","coordinates":[[[110.8363793,-7.586313],[110.8366809,-7.5863647],[110.8367369,-7.5861325],[110.8364628,-7.5860638],[110.8363793,-7.586313]]]}, "properties": {"osm_id": 1443187093, "osm_type": "ways_poly", "capacity": null, "name": "ASRAMA PUTRI 1 SMA MTA SURAKARTA", "amenity": "school", "isced_level": null}},{"type": "Feature", "geometry": {"type":"Polygon","coordinates":[[[110.7834751,-7.547054],[110.783728,-7.5471464],[110.7837914,-7.5469935],[110.7835403,-7.5468942],[110.7834751,-7.547054]]]}, "properties": {"osm_id": 449564196, "osm_type": "ways_poly", "capacity": null, "name": "SDN II Karangasem", "amenity": "school", "isced_level": null}},{"type": "Feature", "geometry": {"type":"Polygon","coordinates":[[[110.7845328,-7.5473525],[110.7846179,-7.5473904],[110.7846535,-7.547304],[110.7845676,-7.5472727],[110.7845328,-7.5473525]]]}, "properties": {"osm_id": 449564204, "osm_type": "ways_poly", "capacity": null, "name": "Taman Putera Mangkunegaran", "amenity": "kindergarten", "isced_level": null}},{"type": "Feature", "geometry": {"type":"Polygon","coordinates":[[[110.7837495,-7.5471062],[110.7838152,-7.5471341],[110.7837991,-7.5471707],[110.7840318,-7.5472584],[110.7841022,-7.5470889],[110.7838621,-7.5469998],[110.7838293,-7.5470803],[110.7837696,-7.5470557],[110.7837495,-7.5471062]]]}, "properties": {"osm_id": 449564198, "osm_type": "ways_poly", "capacity": null, "name": "SDN IV Karangasem", "amenity": "school", "isced_level": null}},{"type": "Feature", "geometry": {"type":"Polygon","coordinates":[[[110.7832714,-7.5473256],[110.783496,-7.5473887],[110.7835483,-7.5472478],[110.7836402,-7.5472797],[110.7836777,-7.5471826],[110.7834819,-7.5471148],[110.7834225,-7.5472632],[110.7833049,-7.5472292],[110.7832714,-7.5473256]]]}, "properties": {"osm_id": 449564197, "osm_type": "ways_poly", "capacity": null, "name": "SDN II Karangasem", "amenity": "school", "isced_level": null}},{"type": "Feature", "geometry": {"type":"Polygon","coordinates":[[[110.8218377,-7.5403361],[110.8218827,-7.5408924],[110.821904,-7.5408921],[110.8220001,-7.5408925],[110.8224949,-7.5408885],[110.8228056,-7.5408834],[110.8229042,-7.5408789],[110.8229157,-7.5404562],[110.8229146,-7.5403141],[110.8229086,-7.5402855],[110.8228844,-7.5402629],[110.8228476,-7.5402563],[110.8223426,-7.5402689],[110.8219148,-7.5402676],[110.8218679,-7.5402736],[110.8218471,-7.5402948],[110.8218377,-7.5403361]]]}, "properties": {"osm_id": 897837421, "osm_type": "ways_poly", "capacity": null, "name": "Universitas Slamet Riyadi", "amenity": "university", "isced_level": null}},{"type": "Feature", "geometry": {"type":"Polygon","coordinates":[[[110.7903195,-7.5616203],[110.7912411,-7.5618998],[110.7912718,-7.5619114],[110.7914394,-7.5612865],[110.7912235,-7.5612271],[110.7905275,-7.56101],[110.7903195,-7.5616203]]]}, "properties": {"osm_id": 225549199, "osm_type": "ways_poly", "capacity": null, "name": "SMA Batik 1 Surakarta", "amenity": "school", "isced_level": null}},{"type": "Feature", "geometry": {"type":"Polygon","coordinates":[[[110.824259,-7.5605375],[110.8244974,-7.5605462],[110.8245213,-7.5599043],[110.8242828,-7.5598956],[110.824259,-7.5605375]]]}, "properties": {"osm_id": 412965390, "osm_type": "ways_poly", "capacity": null, "name": "TK Kristen Kalam Kudus Surakarta", "amenity": "school", "isced_level": null}},{"type": "Feature", "geometry": {"type":"Polygon","coordinates":[[[110.8277272,-7.5595008],[110.8277982,-7.559588],[110.8279609,-7.5594579],[110.8281064,-7.5595547],[110.8280917,-7.5597458],[110.8282151,-7.5597551],[110.828237,-7.5594703],[110.8281657,-7.559465],[110.8280045,-7.5593576],[110.8279963,-7.5593696],[110.8279549,-7.5593187],[110.8277272,-7.5595008]]]}, "properties": {"osm_id": 486934805, "osm_type": "ways_poly", "capacity": null, "name": "SMP Kristen 1 Surakarta", "amenity": "school", "isced_level": null}},{"type": "Feature", "geometry": {"type":"Polygon","coordinates":[[[110.8273721,-7.5601234],[110.8274919,-7.5601313],[110.827501,-7.5599961],[110.8275891,-7.5600019],[110.8275968,-7.5598886],[110.827389,-7.5598748],[110.8273721,-7.5601234]]]}, "properties": {"osm_id": 486934802, "osm_type": "ways_poly", "capacity": null, "name": "SD Lazuardi Kamila GIS", "amenity": "school", "isced_level": null}},{"type": "Feature", "geometry": {"type":"Polygon","coordinates":[[[110.7883175,-7.5555394],[110.7887249,-7.5556811],[110.7887029,-7.5557481],[110.7889116,-7.5558154],[110.7889318,-7.5557536],[110.7889501,-7.5557595],[110.7891088,-7.5552744],[110.7890087,-7.5552423],[110.7888793,-7.5556379],[110.7885042,-7.5555057],[110.7885908,-7.5552597],[110.7888346,-7.5553402],[110.7888641,-7.5552525],[110.788465,-7.5551206],[110.7883175,-7.5555394]]]}, "properties": {"osm_id": 536334512, "osm_type": "ways_poly", "capacity": null, "name": "SMP Negeri 2 Surakarta", "amenity": "school", "isced_level": null}},{"type": "Feature", "geometry": {"type":"Polygon","coordinates":[[[110.7912622,-7.5623456],[110.7913797,-7.562378],[110.7919086,-7.5622747],[110.7921781,-7.5614301],[110.7915806,-7.5612651],[110.7912622,-7.5623456]]]}, "properties": {"osm_id": 242562324, "osm_type": "ways_poly", "capacity": null, "name": null, "amenity": "school", "isced_level": null}},{"type": "Feature", "geometry": {"type":"Polygon","coordinates":[[[110.8545076,-7.5690857],[110.8545322,-7.5692189],[110.8545198,-7.5692207],[110.8545345,-7.5693156],[110.8552452,-7.569208],[110.8552306,-7.5691131],[110.8552179,-7.569115],[110.8552026,-7.5689809],[110.8551098,-7.5689913],[110.8551254,-7.569129],[110.8546279,-7.5692044],[110.8546028,-7.5690684],[110.8545076,-7.5690857]]]}, "properties": {"osm_id": 535526070, "osm_type": "ways_poly", "capacity": null, "name": "SD Negeri Wonosaren", "amenity": "school", "isced_level": null}},{"type": "Feature", "geometry": {"type":"Polygon","coordinates":[[[110.8390936,-7.5640705],[110.8396196,-7.564441],[110.8398412,-7.5647283],[110.8405921,-7.5648637],[110.8407531,-7.5645127],[110.8399497,-7.5641285],[110.8400263,-7.5640009],[110.8393016,-7.5636075],[110.8390936,-7.5640705]]]}, "properties": {"osm_id": 463564041, "osm_type": "ways_poly", "capacity": null, "name": "SMA Negeri 3 Surakarta", "amenity": "school", "isced_level": null}},{"type": "Feature", "geometry": {"type":"Polygon","coordinates":[[[110.818273,-7.55911],[110.8185291,-7.5591644],[110.8186147,-7.5587476],[110.8183639,-7.5587035],[110.818273,-7.55911]]]}, "properties": {"osm_id": 405595170, "osm_type": "ways_poly", "capacity": null, "name": "SMKK Marsudirini", "amenity": "school", "isced_level": null}},{"type": "Feature", "geometry": {"type":"Polygon","coordinates":[[[110.8296207,-7.5585454],[110.8299251,-7.5585692],[110.8300109,-7.5580222],[110.829725,-7.5579925],[110.8296207,-7.5585454]]]}, "properties": {"osm_id": 329893723, "osm_type": "ways_poly", "capacity": null, "name": null, "amenity": "school", "isced_level": null}},{"type": "Feature", "geometry": {"type":"Polygon","coordinates":[[[110.827279,-7.5579334],[110.8276198,-7.5579984],[110.8276314,-7.5579383],[110.8272907,-7.5578733],[110.827279,-7.5579334]]]}, "properties": {"osm_id": 580020509, "osm_type": "ways_poly", "capacity": null, "name": "SD Negeri Cemara Dua No.13 Surakarta", "amenity": "school", "isced_level": null}},{"type": "Feature", "geometry": {"type":"Polygon","coordinates":[[[110.8064751,-7.5622957],[110.8066344,-7.5623434],[110.8066555,-7.5622743],[110.8064961,-7.5622265],[110.8064751,-7.5622957]]]}, "properties": {"osm_id": 580026536, "osm_type": "ways_poly", "capacity": null, "name": "SD Muhammadiyah Kottabarat", "amenity": "school", "isced_level": null}},{"type": "Feature", "geometry": {"type":"Polygon","coordinates":[[[110.7978702,-7.5548241],[110.7979731,-7.5549327],[110.7985095,-7.5544328],[110.7984066,-7.5543242],[110.7978702,-7.5548241]]]}, "properties": {"osm_id": 636440748, "osm_type": "ways_poly", "capacity": null, "name": "SMK Negeri 7 Surakarta", "amenity": "school", "isced_level": null}},{"type": "Feature", "geometry": {"type":"Polygon","coordinates":[[[110.7982282,-7.5529908],[110.7985587,-7.5531482],[110.7986083,-7.5530458],[110.7982779,-7.5528884],[110.7982282,-7.5529908]]]}, "properties": {"osm_id": 580013360, "osm_type": "ways_poly", "capacity": null, "name": "SMK Negeri 4 Surakarta", "amenity": "school", "isced_level": null}},{"type": "Feature", "geometry": {"type":"Polygon","coordinates":[[[110.7994634,-7.5527116],[110.7996672,-7.5529629],[110.7999457,-7.5532341],[110.8004124,-7.5527715],[110.8004178,-7.5525747],[110.8002207,-7.552475],[110.8001013,-7.55258],[110.7997745,-7.5526252],[110.7996163,-7.5526358],[110.799487,-7.5526213],[110.7994634,-7.5527116]]]}, "properties": {"osm_id": 225760337, "osm_type": "ways_poly", "capacity": null, "name": "SMP Negeri 12", "amenity": "school", "isced_level": null}},{"type": "Feature", "geometry": {"type":"Polygon","coordinates":[[[110.8054773,-7.553046],[110.8054811,-7.5530475],[110.8054797,-7.5530513],[110.8055407,-7.553073],[110.8055414,-7.5530713],[110.8056632,-7.5531193],[110.8056629,-7.5531201],[110.8057326,-7.5531467],[110.8057854,-7.5530107],[110.8057156,-7.5529841],[110.8056862,-7.5530598],[110.8055632,-7.5530113],[110.8056049,-7.5528965],[110.8055439,-7.5528747],[110.8055029,-7.5529875],[110.805501,-7.5529868],[110.8054773,-7.553046]]]}, "properties": {"osm_id": 579884810, "osm_type": "ways_poly", "capacity": null, "name": "SDI Al Fattah", "amenity": "school", "isced_level": null}},{"type": "Feature", "geometry": {"type":"Polygon","coordinates":[[[110.8064184,-7.5642898],[110.8064986,-7.5643089],[110.8065041,-7.5642864],[110.8068019,-7.5643802],[110.8068361,-7.5642734],[110.8072628,-7.5643625],[110.8072793,-7.5642845],[110.8068447,-7.5641938],[110.8065954,-7.5641196],[110.806574,-7.5641902],[110.8065307,-7.5641766],[110.8065496,-7.5640989],[110.8064693,-7.5640797],[110.8064184,-7.5642898]]]}, "properties": {"osm_id": 580012599, "osm_type": "ways_poly", "capacity": null, "name": "SMP Negeri 25 Surakarta", "amenity": "school", "isced_level": null}},{"type": "Feature", "geometry": {"type":"Polygon","coordinates":[[[110.8068113,-7.5630481],[110.8071864,-7.5631316],[110.8072061,-7.5630445],[110.807207,-7.5630405],[110.8072603,-7.5628053],[110.8071927,-7.5627903],[110.8071793,-7.5628496],[110.8071389,-7.5628407],[110.8071431,-7.562827],[110.8069052,-7.5627556],[110.806877,-7.5628481],[110.8068874,-7.5628512],[110.806862,-7.5629638],[110.8068319,-7.5629571],[110.8068113,-7.5630481]]]}, "properties": {"osm_id": 580026523, "osm_type": "ways_poly", "capacity": null, "name": "SDN 15 Mangkubumen Lor", "amenity": "school", "isced_level": null}},{"type": "Feature", "geometry": {"type":"Polygon","coordinates":[[[110.8121204,-7.5667838],[110.8123096,-7.5668343],[110.8123678,-7.5666178],[110.8121859,-7.5665637],[110.8121204,-7.5667838]]]}, "properties": {"osm_id": 329885269, "osm_type": "ways_poly", "capacity": null, "name": "Pintu Masuk MAN 2 Surakarta", "amenity": "school", "isced_level": null}},{"type": "Feature", "geometry": {"type":"Polygon","coordinates":[[[110.8124198,-7.5538082],[110.8126534,-7.5538976],[110.812595,-7.5540485],[110.8126782,-7.5540783],[110.8127702,-7.5538696],[110.8126963,-7.5538344],[110.8127148,-7.5537964],[110.8127242,-7.5537167],[110.8127296,-7.5536079],[110.8125485,-7.5535281],[110.8125338,-7.5536063],[110.8126639,-7.5536518],[110.8126465,-7.5536983],[110.8125985,-7.5537879],[110.8124605,-7.5537222],[110.8124198,-7.5538082]]]}, "properties": {"osm_id": 464737877, "osm_type": "ways_poly", "capacity": null, "name": "SD Pangudi Luhur Santo Valentinus", "amenity": "school", "isced_level": null}},{"type": "Feature", "geometry": {"type":"Polygon","coordinates":[[[110.8146065,-7.5540198],[110.814693,-7.5543714],[110.8147633,-7.5543544],[110.8146969,-7.5540847],[110.8147585,-7.5540698],[110.8147383,-7.5539879],[110.8146065,-7.5540198]]]}, "properties": {"osm_id": 401048695, "osm_type": "ways_poly", "capacity": null, "name": "SLBB-YRTW Gumunggung", "amenity": "school", "isced_level": null}},{"type": "Feature", "geometry": {"type":"Polygon","coordinates":[[[110.8021053,-7.5557055],[110.8024687,-7.5558466],[110.8025337,-7.5556823],[110.8021671,-7.5555399],[110.8021053,-7.5557055]]]}, "properties": {"osm_id": 1220662271, "osm_type": "ways_poly", "capacity": null, "name": "SMA Negeri 4 Surakarta", "amenity": "school", "isced_level": null}},{"type": "Feature", "geometry": {"type":"Polygon","coordinates":[[[110.8011909,-7.5552464],[110.8016711,-7.55539],[110.8017057,-7.5552761],[110.8012256,-7.5551326],[110.8011909,-7.5552464]]]}, "properties": {"osm_id": 606867958, "osm_type": "ways_poly", "capacity": null, "name": "SMK Negeri 2 Surakarta", "amenity": "school", "isced_level": null}},{"type": "Feature", "geometry": {"type":"Polygon","coordinates":[[[110.8156394,-7.5795326],[110.8158387,-7.579585],[110.815855,-7.5795241],[110.8156557,-7.5794718],[110.8156394,-7.5795326]]]}, "properties": {"osm_id": 534574421, "osm_type": "ways_poly", "capacity": null, "name": "SD Negeri Kemasan 1", "amenity": "school", "isced_level": null}},{"type": "Feature", "geometry": {"type":"Polygon","coordinates":[[[110.8513036,-7.556521],[110.8517262,-7.5565441],[110.8518144,-7.5565467],[110.8518921,-7.5565467],[110.8519544,-7.5558348],[110.8521618,-7.5558322],[110.8522188,-7.5554801],[110.8519855,-7.5554724],[110.8517936,-7.5552848],[110.8517496,-7.5553234],[110.8516718,-7.5552488],[110.8514436,-7.5554647],[110.8514333,-7.5557705],[110.8514073,-7.5557885],[110.8513944,-7.5558579],[110.8513399,-7.5558631],[110.8513322,-7.5564722],[110.8513036,-7.5564722],[110.8513036,-7.556521]]]}, "properties": {"osm_id": 1193518463, "osm_type": "ways_poly", "capacity": null, "name": "AK-Tekstil Solo (Akademi Komunitas Industri Tekstil dan Produk Tekstil Surakarta)", "amenity": "university", "isced_level": null}},{"type": "Feature", "geometry": {"type":"Polygon","coordinates":[[[110.8536543,-7.5731615],[110.8536625,-7.5732048],[110.8536664,-7.5732516],[110.8538485,-7.5732408],[110.8538459,-7.5731508],[110.8536543,-7.5731615]]]}, "properties": {"osm_id": 536703664, "osm_type": "ways_poly", "capacity": null, "name": "TK Tunas Bangsa", "amenity": "kindergarten", "isced_level": null}},{"type": "Feature", "geometry": {"type":"Polygon","coordinates":[[[110.8538004,-7.5736965],[110.8538081,-7.5738005],[110.8538748,-7.5737988],[110.8538748,-7.5736969],[110.8538004,-7.5736965]]]}, "properties": {"osm_id": 536682155, "osm_type": "ways_poly", "capacity": null, "name": "Paud Dahlia", "amenity": "kindergarten", "isced_level": null}},{"type": "Feature", "geometry": {"type":"Polygon","coordinates":[[[110.8563614,-7.5613947],[110.8568135,-7.5613992],[110.856817,-7.5610492],[110.856365,-7.5610447],[110.8563614,-7.5613947]]]}, "properties": {"osm_id": 1074571972, "osm_type": "ways_poly", "capacity": null, "name": "Lapangan Rektorat UNS", "amenity": "college", "isced_level": null}},{"type": "Feature", "geometry": {"type":"Polygon","coordinates":[[[110.8270283,-7.5521798],[110.8270832,-7.5521811],[110.8270861,-7.5520642],[110.8270311,-7.5520628],[110.8270283,-7.5521798]]]}, "properties": {"osm_id": 580012223, "osm_type": "ways_poly", "capacity": null, "name": "TPA Nurul Huda Nusukan", "amenity": "school", "isced_level": null}},{"type": "Feature", "geometry": {"type":"Polygon","coordinates":[[[110.8081452,-7.5585058],[110.8084058,-7.5588825],[110.8092735,-7.5586961],[110.8098426,-7.5585914],[110.8091432,-7.5577637],[110.8083939,-7.558277],[110.8081452,-7.5585058]]]}, "properties": {"osm_id": 274295570, "osm_type": "ways_poly", "capacity": null, "name": "SMP Negeri 1 Surakarta", "amenity": "school", "isced_level": null}},{"type": "Feature", "geometry": {"type":"Polygon","coordinates":[[[110.8323886,-7.563362],[110.8325629,-7.5633779],[110.8326048,-7.5629285],[110.8324304,-7.5629125],[110.8323886,-7.563362]]]}, "properties": {"osm_id": 580013822, "osm_type": "ways_poly", "capacity": null, "name": "SMKN 8 Surakarta", "amenity": "school", "isced_level": null}},{"type": "Feature", "geometry": {"type":"Polygon","coordinates":[[[110.8301947,-7.5586373],[110.8306484,-7.558715],[110.8306544,-7.5585259],[110.8307583,-7.5579284],[110.8308301,-7.5579418],[110.8309358,-7.557322],[110.83047,-7.5572093],[110.8303852,-7.5577559],[110.8302735,-7.5582949],[110.8301947,-7.5586373]]]}, "properties": {"osm_id": 274295920, "osm_type": "ways_poly", "capacity": null, "name": "SMA Negeri 1 Surakarta", "amenity": "school", "isced_level": null}},{"type": "Feature", "geometry": {"type":"Polygon","coordinates":[[[110.8316143,-7.5568503],[110.8317002,-7.5568822],[110.8317786,-7.5566747],[110.8316928,-7.5566428],[110.8316143,-7.5568503]]]}, "properties": {"osm_id": 580001830, "osm_type": "ways_poly", "capacity": null, "name": "SDN Bibis Kulon", "amenity": "school", "isced_level": null}},{"type": "Feature", "geometry": {"type":"Polygon","coordinates":[[[110.7737674,-7.5512677],[110.7743701,-7.551468],[110.7745452,-7.550964],[110.7739324,-7.5507671],[110.7737674,-7.5512677]]]}, "properties": {"osm_id": 936176719, "osm_type": "ways_poly", "capacity": null, "name": "SMPN 3 Surakarta", "amenity": "school", "isced_level": null}},{"type": "Feature", "geometry": {"type":"Polygon","coordinates":[[[110.7924161,-7.5675565],[110.7927611,-7.5677566],[110.7928653,-7.5675801],[110.7927707,-7.5675253],[110.7927198,-7.5676115],[110.7925426,-7.5675088],[110.7925798,-7.5674458],[110.7925065,-7.5674032],[110.7924161,-7.5675565]]]}, "properties": {"osm_id": 850573825, "osm_type": "ways_poly", "capacity": null, "name": "SD Djama'atul Ichwan Surakarta", "amenity": "school", "isced_level": null}},{"type": "Feature", "geometry": {"type":"Polygon","coordinates":[[[110.7853959,-7.5490989],[110.786173,-7.5493301],[110.7866063,-7.5494771],[110.7866973,-7.5491655],[110.786922,-7.5483963],[110.7858311,-7.5478286],[110.7853959,-7.5490989]]]}, "properties": {"osm_id": 457673611, "osm_type": "ways_poly", "capacity": null, "name": "Universitas Sahid Surakarta", "amenity": "university", "isced_level": null}},{"type": "Feature", "geometry": {"type":"Polygon","coordinates":[[[110.7875974,-7.5595563],[110.7877703,-7.5596091],[110.7877781,-7.5595837],[110.7878323,-7.5596002],[110.7879986,-7.5590645],[110.7879004,-7.5590345],[110.7877681,-7.5594606],[110.7876393,-7.5594213],[110.7875974,-7.5595563]]]}, "properties": {"osm_id": 536367432, "osm_type": "ways_poly", "capacity": null, "name": "SD Negeri Kleco I dan II", "amenity": "school", "isced_level": null}},{"type": "Feature", "geometry": {"type":"Polygon","coordinates":[[[110.7844373,-7.5475707],[110.7845104,-7.5475976],[110.7845446,-7.5475079],[110.7844755,-7.5474816],[110.7844373,-7.5475707]]]}, "properties": {"osm_id": 449564201, "osm_type": "ways_poly", "capacity": null, "name": "Sanggar Bel Kreatif", "amenity": "kindergarten", "isced_level": null}},{"type": "Feature", "geometry": {"type":"Polygon","coordinates":[[[110.7836099,-7.5474084],[110.7839158,-7.5474984],[110.7839493,-7.5474014],[110.7839734,-7.5474087],[110.7839949,-7.5473542],[110.7838997,-7.5473189],[110.7838782,-7.5473748],[110.7836502,-7.5472996],[110.7836099,-7.5474084]]]}, "properties": {"osm_id": 449564199, "osm_type": "ways_poly", "capacity": null, "name": "SDN IV Karangasem", "amenity": "school", "isced_level": null}},{"type": "Feature", "geometry": {"type":"Polygon","coordinates":[[[110.8028056,-7.5506826],[110.8030465,-7.5507732],[110.8030561,-7.550748],[110.8032367,-7.550816],[110.8032865,-7.5507828],[110.8034406,-7.5504583],[110.803467,-7.5504615],[110.803666,-7.549975],[110.8034471,-7.549887],[110.8028056,-7.5506826]]]}, "properties": {"osm_id": 1367621964, "osm_type": "ways_poly", "capacity": null, "name": "SMK Bhinneka Karya Surakarta", "amenity": "school", "isced_level": null}},{"type": "Feature", "geometry": {"type":"Polygon","coordinates":[[[110.8227757,-7.5312841],[110.8230503,-7.531336],[110.8231099,-7.5310259],[110.8228353,-7.5309741],[110.8227757,-7.5312841]]]}, "properties": {"osm_id": 448084558, "osm_type": "ways_poly", "capacity": null, "name": "Pondok Pesantren BUDI OETOMO", "amenity": "school", "isced_level": null}},{"type": "Feature", "geometry": {"type":"Polygon","coordinates":[[[110.7742156,-7.5529047],[110.7743821,-7.5529714],[110.7758142,-7.5534074],[110.7759104,-7.553049],[110.7758437,-7.5530379],[110.775868,-7.5529553],[110.7759245,-7.5527634],[110.7759547,-7.5526347],[110.775999,-7.5526427],[110.7760392,-7.5524832],[110.7760043,-7.5524579],[110.7760796,-7.5521946],[110.7761073,-7.5521144],[110.7757027,-7.551989],[110.7752265,-7.5518437],[110.7751232,-7.5518304],[110.7748416,-7.5517746],[110.7748255,-7.5518078],[110.7747411,-7.5517831],[110.7747527,-7.5517298],[110.774595,-7.5516878],[110.7742156,-7.5529047]]]}, "properties": {"osm_id": 270024468, "osm_type": "ways_poly", "capacity": null, "name": "Kampus ATMI", "amenity": "university", "isced_level": null}},{"type": "Feature", "geometry": {"type":"Polygon","coordinates":[[[110.8090259,-7.5478413],[110.8091205,-7.547883],[110.8091978,-7.5477106],[110.8091032,-7.5476689],[110.8090259,-7.5478413]]]}, "properties": {"osm_id": 580001977, "osm_type": "ways_poly", "capacity": null, "name": "SMP Islam Terpadu Nur Hidayah Surakarta", "amenity": "school", "isced_level": null}},{"type": "Feature", "geometry": {"type":"Polygon","coordinates":[[[110.7950826,-7.553049],[110.7952081,-7.5530938],[110.7952086,-7.5530924],[110.7957284,-7.5532627],[110.7957609,-7.5531722],[110.7957599,-7.5531717],[110.795864,-7.5528852],[110.7957612,-7.5528485],[110.7952174,-7.5526742],[110.7951745,-7.552796],[110.7950826,-7.553049]],[[110.7952404,-7.5530048],[110.7952997,-7.5528417],[110.7957093,-7.5529913],[110.7956581,-7.553132],[110.7952404,-7.5530048]]]}, "properties": {"osm_id": 8440980, "osm_type": "relations", "capacity": null, "name": "SMA Regina Pacis - Ursulin Surakarta", "amenity": "school", "isced_level": null}},{"type": "Feature", "geometry": {"type":"Polygon","coordinates":[[[110.8361172,-7.5867287],[110.8363444,-7.5867988],[110.836513,-7.5868514],[110.8365731,-7.5868801],[110.8365916,-7.5868321],[110.8365942,-7.5868328],[110.836609,-7.5867792],[110.8366212,-7.5867422],[110.8366194,-7.5867416],[110.8366938,-7.5864708],[110.8362345,-7.5863466],[110.8361172,-7.5867287]],[[110.8363225,-7.5866984],[110.8363835,-7.5865114],[110.8365701,-7.5865689],[110.8365172,-7.5867612],[110.8363225,-7.5866984]]]}, "properties": {"osm_id": 8210769, "osm_type": "relations", "capacity": null, "name": "SMA Majlis Tafsir Al Qur'an Surakarta", "amenity": "school", "isced_level": null}}]}