{"type": "FeatureCollection","features": [{"type": "Feature", "geometry": {"type":"Point","coordinates":[110.7900979,-7.5603709]}, "properties": {"osm_id": 2504599259, "osm_type": "nodes", "emergency": "yes", "name": "RS Panti Waluyo Solo", "amenity": "hospital", "building": null}},{"type": "Feature", "geometry": {"type":"Point","coordinates":[110.8097611,-7.5717915]}, "properties": {"osm_id": 1407107253, "osm_type": "nodes", "emergency": null, "name": "Polsek Laweyan", "amenity": "police", "building": null}},{"type": "Feature", "geometry": {"type":"Point","coordinates":[110.7904362,-7.5606993]}, "properties": {"osm_id": 5263376370, "osm_type": "nodes", "emergency": null, "name": null, "amenity": "police", "building": null}},{"type": "Feature", "geometry": {"type":"Point","coordinates":[110.8193345,-7.5814897]}, "properties": {"osm_id": 3318700237, "osm_type": "nodes", "emergency": null, "name": "Polsek Serengan", "amenity": "police", "building": null}},{"type": "Feature", "geometry": {"type":"Point","coordinates":[110.8561511,-7.5443801]}, "properties": {"osm_id": 6130196532, "osm_type": "nodes", "emergency": "assembly_point", "name": "Titik Kumpul", "amenity": null, "building": null}},{"type": "Feature", "geometry": {"type":"Point","coordinates":[110.8208074,-7.5465867]}, "properties": {"osm_id": 9833053652, "osm_type": "nodes", "emergency": null, "name": "Pos Polisi Nusukan", "amenity": "police", "building": null}},{"type": "Feature", "geometry": {"type":"Polygon","coordinates":[[[110.8292118,-7.5761315],[110.8293247,-7.576152],[110.8293411,-7.576155],[110.8293412,-7.5761543],[110.8293511,-7.5761561],[110.8293574,-7.5761222],[110.8293479,-7.5761205],[110.8293626,-7.5760411],[110.8294922,-7.5760646],[110.8294767,-7.5761488],[110.8295294,-7.5761584],[110.8295448,-7.5760749],[110.829547,-7.5760753],[110.8295578,-7.5760172],[110.8295052,-7.5760077],[110.8295052,-7.5760078],[110.8294603,-7.5759997],[110.8294705,-7.5759446],[110.8294306,-7.5759374],[110.8294205,-7.5759917],[110.8293739,-7.5759833],[110.8293025,-7.5759703],[110.829292,-7.5760274],[110.829277,-7.5761087],[110.829218,-7.5760979],[110.8292118,-7.5761315]]]}, "properties": {"osm_id": 670872950, "osm_type": "ways_poly", "emergency": null, "name": "Polsek Ps. Kliwon", "amenity": "police", "building": "yes"}},{"type": "Feature", "geometry": {"type":"Polygon","coordinates":[[[110.8013355,-7.5538471],[110.8027375,-7.5542886],[110.8027157,-7.5543612],[110.8024067,-7.5542619],[110.8023058,-7.5545534],[110.8022734,-7.5545441],[110.8022025,-7.5547647],[110.8020556,-7.5547123],[110.8019711,-7.5549321],[110.8022414,-7.5550779],[110.802653,-7.5553007],[110.8028319,-7.5553972],[110.8031136,-7.5546445],[110.8026869,-7.5544682],[110.8033004,-7.5526847],[110.8032614,-7.5526689],[110.8025226,-7.5523751],[110.8020322,-7.5525022],[110.8013355,-7.5538471]]]}, "properties": {"osm_id": 424538829, "osm_type": "ways_poly", "emergency": null, "name": "Kompleks Mapolresta Surakarta", "amenity": "police", "building": null}},{"type": "Feature", "geometry": {"type":"Polygon","coordinates":[[[110.8272761,-7.5751987],[110.8273332,-7.575214],[110.8273476,-7.5751562],[110.8272898,-7.575143],[110.8272761,-7.5751987]]]}, "properties": {"osm_id": 340066626, "osm_type": "ways_poly", "emergency": null, "name": null, "amenity": "police", "building": "yes"}},{"type": "Feature", "geometry": {"type":"Polygon","coordinates":[[[110.8308383,-7.5806627],[110.8313774,-7.580987],[110.8316832,-7.5807344],[110.8309402,-7.5804021],[110.8308383,-7.5806627]]]}, "properties": {"osm_id": 374656510, "osm_type": "ways_poly", "emergency": "yes", "name": "RSI Kustati", "amenity": "hospital", "building": null}},{"type": "Feature", "geometry": {"type":"Polygon","coordinates":[[[110.8210081,-7.5663418],[110.8211585,-7.5664003],[110.8212618,-7.5661397],[110.8211114,-7.5660812],[110.8210081,-7.5663418]]]}, "properties": {"osm_id": 535516024, "osm_type": "ways_poly", "emergency": null, "name": "Polsek Banjarsari", "amenity": "police", "building": "yes"}},{"type": "Feature", "geometry": {"type":"Polygon","coordinates":[[[110.8371241,-7.5556869],[110.8371864,-7.555801],[110.8372809,-7.5558884],[110.8384648,-7.55623],[110.8387524,-7.5556218],[110.8389468,-7.554991],[110.8389536,-7.5548753],[110.8389314,-7.5548321],[110.8388993,-7.5547962],[110.838806,-7.5547577],[110.838747,-7.5547497],[110.838688,-7.554757],[110.8376259,-7.5550647],[110.8374213,-7.5551325],[110.8373798,-7.5551851],[110.8371618,-7.5555916],[110.8371241,-7.5556869]]]}, "properties": {"osm_id": 782972077, "osm_type": "ways_poly", "emergency": "yes", "name": "RS Dokter Oen Kandang Sapi", "amenity": "hospital", "building": null}},{"type": "Feature", "geometry": {"type":"Polygon","coordinates":[[[110.8413153,-7.5594719],[110.8430823,-7.5593507],[110.8430855,-7.5575894],[110.8430774,-7.5568376],[110.8426329,-7.5567937],[110.84214,-7.5567366],[110.8421092,-7.5567465],[110.8420817,-7.5567625],[110.8420629,-7.5567851],[110.8420502,-7.5568157],[110.8420207,-7.5575595],[110.8420032,-7.5576233],[110.8419663,-7.5576658],[110.8419254,-7.5576964],[110.8418778,-7.557717],[110.8418302,-7.5577323],[110.8417551,-7.5577376],[110.8416594,-7.557738],[110.8414774,-7.5577337],[110.8413456,-7.557734],[110.8413153,-7.5594719]]]}, "properties": {"osm_id": 783804599, "osm_type": "ways_poly", "emergency": "yes", "name": "RSUD Dr. Moewardi Surakarta", "amenity": "hospital", "building": null}},{"type": "Feature", "geometry": {"type":"Polygon","coordinates":[[[110.802337,-7.5547971],[110.802508,-7.5548583],[110.8024984,-7.5548847],[110.802491,-7.554905],[110.8024867,-7.5549169],[110.8025842,-7.5549518],[110.8025881,-7.5549411],[110.802596,-7.5549194],[110.8026052,-7.5548943],[110.8027499,-7.5549461],[110.8027942,-7.5548244],[110.802381,-7.5546765],[110.802337,-7.5547971]]]}, "properties": {"osm_id": 1220656705, "osm_type": "ways_poly", "emergency": null, "name": "Mapolresta Surakarta", "amenity": "police", "building": "office"}},{"type": "Feature", "geometry": {"type":"Polygon","coordinates":[[[110.8027409,-7.5547937],[110.8028514,-7.5548321],[110.8029361,-7.5545928],[110.8028256,-7.5545544],[110.8027409,-7.5547937]]]}, "properties": {"osm_id": 1220657063, "osm_type": "ways_poly", "emergency": null, "name": "Mapolresta Surakarta", "amenity": "police", "building": "office"}},{"type": "Feature", "geometry": {"type":"Polygon","coordinates":[[[110.8012942,-7.5637888],[110.8015359,-7.5638562],[110.801754,-7.5634243],[110.8020517,-7.5634988],[110.8022207,-7.562866],[110.8020987,-7.5628234],[110.8021818,-7.5625296],[110.8018988,-7.5624472],[110.801933,-7.5622804],[110.8018164,-7.5622544],[110.8017218,-7.5625363],[110.8016467,-7.5625137],[110.8016708,-7.5623781],[110.8014368,-7.5623289],[110.8013798,-7.5625788],[110.8015569,-7.5625941],[110.8015622,-7.5625662],[110.8016139,-7.5625961],[110.8015354,-7.5630215],[110.8014308,-7.5633579],[110.8012942,-7.5637888]]]}, "properties": {"osm_id": 782898009, "osm_type": "ways_poly", "emergency": "yes", "name": "RS Kasih Ibu", "amenity": "hospital", "building": null}}]}