{"type": "FeatureCollection","features": [{"type": "Feature", "geometry": {"type":"Point","coordinates":[110.8240849,-7.5597982]}, "properties": {"osm_id": 10961471362, "osm_type": "nodes", "military": null, "government": "administrative", "landuse": null, "building": null, "name": "Kantor Kelurahan Kestalan", "office": "government", "amenity": null}},{"type": "Feature", "geometry": {"type":"Point","coordinates":[110.8352,-7.5591]}, "properties": {"osm_id": 10961476039, "osm_type": "nodes", "military": null, "government": "administrative", "landuse": null, "building": null, "name": "Kantor Kelurahan Tegalharjo", "office": "government", "amenity": null}},{"type": "Feature", "geometry": {"type":"Point","coordinates":[110.8406508,-7.5586338]}, "properties": {"osm_id": 10961478572, "osm_type": "nodes", "military": null, "government": "administrative", "landuse": null, "building": null, "name": "Kantor Kelurahan Jebres", "office": "government", "amenity": null}},{"type": "Feature", "geometry": {"type":"Point","coordinates":[110.7961,-7.5571]}, "properties": {"osm_id": 10961474700, "osm_type": "nodes", "military": null, "government": "administrative", "landuse": null, "building": null, "name": "Kantor Kelurahan Kerten", "office": "government", "amenity": null}},{"type": "Feature", "geometry": {"type":"Point","coordinates":[110.7854,-7.5562]}, "properties": {"osm_id": 10961477234, "osm_type": "nodes", "military": null, "government": "administrative", "landuse": null, "building": null, "name": "Kantor Kelurahan Jajar", "office": "government", "amenity": null}},{"type": "Feature", "geometry": {"type":"Point","coordinates":[110.7771,-7.5504]}, "properties": {"osm_id": 10961471496, "osm_type": "nodes", "military": null, "government": "administrative", "landuse": null, "building": null, "name": "Kantor Kelurahan Karangasem", "office": "government", "amenity": null}},{"type": "Feature", "geometry": {"type":"Point","coordinates":[110.8336,-7.5826]}, "properties": {"osm_id": 10961475225, "osm_type": "nodes", "military": null, "government": "administrative", "landuse": null, "building": null, "name": "Kantor Kelurahan Semanggi", "office": "government", "amenity": null}},{"type": "Feature", "geometry": {"type":"Point","coordinates":[110.8386,-7.5757]}, "properties": {"osm_id": 10961478046, "osm_type": "nodes", "military": null, "government": "administrative", "landuse": null, "building": null, "name": "Kantor Kelurahan Sangkrah", "office": "government", "amenity": null}},{"type": "Feature", "geometry": {"type":"Point","coordinates":[110.8355,-7.5699]}, "properties": {"osm_id": 10961477377, "osm_type": "nodes", "military": null, "government": "administrative", "landuse": null, "building": null, "name": "Kantor Kelurahan Sudiroprajan", "office": "government", "amenity": null}},{"type": "Feature", "geometry": {"type":"Point","coordinates":[110.8195,-7.5424]}, "properties": {"osm_id": 10961475761, "osm_type": "nodes", "military": null, "government": "administrative", "landuse": null, "building": null, "name": "Kantor Kelurahan Nusukan", "office": "government", "amenity": null}},{"type": "Feature", "geometry": {"type":"Point","coordinates":[110.821,-7.54]}, "properties": {"osm_id": 10961478295, "osm_type": "nodes", "military": null, "government": "administrative", "landuse": null, "building": null, "name": "Kantor Kelurahan Kadipiro", "office": "government", "amenity": null}},{"type": "Feature", "geometry": {"type":"Point","coordinates":[110.7968,-7.5678]}, "properties": {"osm_id": 10961471877, "osm_type": "nodes", "military": null, "government": "administrative", "landuse": null, "building": null, "name": "Kantor Kelurahan Laweyan", "office": "government", "amenity": null}},{"type": "Feature", "geometry": {"type":"Point","coordinates":[110.8041,-7.5649]}, "properties": {"osm_id": 10961476275, "osm_type": "nodes", "military": null, "government": "administrative", "landuse": null, "building": null, "name": "Kantor Kelurahan Purwosari", "office": "government", "amenity": null}},{"type": "Feature", "geometry": {"type":"Point","coordinates":[110.7857,-7.5699]}, "properties": {"osm_id": 10961477615, "osm_type": "nodes", "military": null, "government": "administrative", "landuse": null, "building": null, "name": "Kantor Kelurahan Pajang", "office": "government", "amenity": null}},{"type": "Feature", "geometry": {"type":"Point","coordinates":[110.7984,-7.5545]}, "properties": {"osm_id": 10961478965, "osm_type": "nodes", "military": null, "government": "administrative", "landuse": null, "building": null, "name": "Kantor Kelurahan Manahan", "office": "government", "amenity": null}},{"type": "Feature", "geometry": {"type":"Point","coordinates":[110.8160706,-7.5427578]}, "properties": {"osm_id": 9783077699, "osm_type": "nodes", "military": null, "government": null, "landuse": null, "building": null, "name": null, "office": null, "amenity": "post_office"}},{"type": "Feature", "geometry": {"type":"Point","coordinates":[110.8206438,-7.5413447]}, "properties": {"osm_id": 9783077703, "osm_type": "nodes", "military": null, "government": null, "landuse": null, "building": null, "name": null, "office": null, "amenity": "post_office"}},{"type": "Feature", "geometry": {"type":"Point","coordinates":[110.8006,-7.5697]}, "properties": {"osm_id": 10961474411, "osm_type": "nodes", "military": null, "government": "administrative", "landuse": null, "building": null, "name": "Kantor Kelurahan Bumi", "office": "government", "amenity": null}},{"type": "Feature", "geometry": {"type":"Point","coordinates":[110.828493,-7.5861875]}, "properties": {"osm_id": 10961472691, "osm_type": "nodes", "military": null, "government": "administrative", "landuse": null, "building": null, "name": "Kantor Kelurahan Joyosuran", "office": "government", "amenity": null}},{"type": "Feature", "geometry": {"type":"Point","coordinates":[110.8319354,-7.5735668]}, "properties": {"osm_id": 9838032924, "osm_type": "nodes", "military": null, "government": null, "landuse": null, "building": null, "name": "Badan Penerus Pembudayaan Kejuangan Kota Surakarta", "office": "government", "amenity": null}},{"type": "Feature", "geometry": {"type":"Point","coordinates":[110.8291047,-7.5495202]}, "properties": {"osm_id": 9783253673, "osm_type": "nodes", "military": null, "government": null, "landuse": null, "building": null, "name": null, "office": null, "amenity": "post_office"}},{"type": "Feature", "geometry": {"type":"Point","coordinates":[110.8449,-7.5659]}, "properties": {"osm_id": 10961479242, "osm_type": "nodes", "military": null, "government": "administrative", "landuse": null, "building": null, "name": "Kantor Kelurahan Jagalan", "office": "government", "amenity": null}},{"type": "Feature", "geometry": {"type":"Point","coordinates":[110.827,-7.5615]}, "properties": {"osm_id": 10961473895, "osm_type": "nodes", "military": null, "government": "administrative", "landuse": null, "building": null, "name": "Kantor Kelurahan Setabelan", "office": "government", "amenity": null}},{"type": "Feature", "geometry": {"type":"Point","coordinates":[110.8293,-7.5623]}, "properties": {"osm_id": 10961472308, "osm_type": "nodes", "military": null, "government": "administrative", "landuse": null, "building": null, "name": "Kantor Kelurahan Kepatihan Kulon", "office": "government", "amenity": null}},{"type": "Feature", "geometry": {"type":"Point","coordinates":[110.7997095,-7.5680941]}, "properties": {"osm_id": 7043522355, "osm_type": "nodes", "military": null, "government": "administrative", "landuse": null, "building": null, "name": "Kantor Lurah Bumi", "office": "government", "amenity": null}},{"type": "Feature", "geometry": {"type":"Point","coordinates":[110.7935,-7.5659]}, "properties": {"osm_id": 10961478809, "osm_type": "nodes", "military": null, "government": "administrative", "landuse": null, "building": null, "name": "Kantor Kelurahan Sondakan", "office": "government", "amenity": null}},{"type": "Feature", "geometry": {"type":"Point","coordinates":[110.7792804,-7.5591842]}, "properties": {"osm_id": 3931643657, "osm_type": "nodes", "military": null, "government": null, "landuse": null, "building": null, "name": "KERAJAAN YOGA", "office": null, "amenity": "townhall"}},{"type": "Feature", "geometry": {"type":"Point","coordinates":[110.8387122,-7.5754431]}, "properties": {"osm_id": 4529446277, "osm_type": "nodes", "military": null, "government": null, "landuse": null, "building": null, "name": "kelurahan sangkrah", "office": "government", "amenity": null}},{"type": "Feature", "geometry": {"type":"Point","coordinates":[110.8379493,-7.5729159]}, "properties": {"osm_id": 10961471640, "osm_type": "nodes", "military": null, "government": "administrative", "landuse": null, "building": null, "name": "Kantor Kelurahan Gandekan", "office": "government", "amenity": null}},{"type": "Feature", "geometry": {"type":"Point","coordinates":[110.8154434,-7.5794337]}, "properties": {"osm_id": 10961473360, "osm_type": "nodes", "military": null, "government": "administrative", "landuse": null, "building": null, "name": "Kantor Kelurahan Kratonan", "office": "government", "amenity": null}},{"type": "Feature", "geometry": {"type":"Point","coordinates":[110.8227669,-7.5817364]}, "properties": {"osm_id": 10961474556, "osm_type": "nodes", "military": null, "government": "administrative", "landuse": null, "building": null, "name": "Kantor Kelurahan Gajahan", "office": "government", "amenity": null}},{"type": "Feature", "geometry": {"type":"Point","coordinates":[110.8194,-7.5856]}, "properties": {"osm_id": 10961476565, "osm_type": "nodes", "military": null, "government": "administrative", "landuse": null, "building": null, "name": "Kantor Kelurahan Danukusuman", "office": "government", "amenity": null}},{"type": "Feature", "geometry": {"type":"Point","coordinates":[110.8206,-7.5926]}, "properties": {"osm_id": 10961474029, "osm_type": "nodes", "military": null, "government": "administrative", "landuse": null, "building": null, "name": "Kantor Kelurahan Joyotakan", "office": "government", "amenity": null}},{"type": "Feature", "geometry": {"type":"Point","coordinates":[110.8415,-7.5726]}, "properties": {"osm_id": 10961474173, "osm_type": "nodes", "military": null, "government": "administrative", "landuse": null, "building": null, "name": "Kantor Kelurahan Sewu", "office": "government", "amenity": null}},{"type": "Feature", "geometry": {"type":"Point","coordinates":[110.8316,-7.5653]}, "properties": {"osm_id": 10961474843, "osm_type": "nodes", "military": null, "government": "administrative", "landuse": null, "building": null, "name": "Kantor Kelurahan Kepatihan Wetan", "office": "government", "amenity": null}},{"type": "Feature", "geometry": {"type":"Point","coordinates":[110.8262,-7.5716]}, "properties": {"osm_id": 10961477089, "osm_type": "nodes", "military": null, "government": "administrative", "landuse": null, "building": null, "name": "Kantor Kelurahan Kauman", "office": "government", "amenity": null}},{"type": "Feature", "geometry": {"type":"Point","coordinates":[110.852097,-7.5690794]}, "properties": {"osm_id": 10961476707, "osm_type": "nodes", "military": null, "government": "administrative", "landuse": null, "building": null, "name": "Kantor Kelurahan Pucangsawit", "office": "government", "amenity": null}},{"type": "Feature", "geometry": {"type":"Point","coordinates":[110.8225,-7.5688]}, "properties": {"osm_id": 10961472165, "osm_type": "nodes", "military": null, "government": "administrative", "landuse": null, "building": null, "name": "Kantor Kelurahan Keprabon", "office": "government", "amenity": null}},{"type": "Feature", "geometry": {"type":"Point","coordinates":[110.8235944,-7.5627417]}, "properties": {"osm_id": 4134668839, "osm_type": "nodes", "military": null, "government": null, "landuse": null, "building": null, "name": "DPC PDIP", "office": "political_party", "amenity": null}},{"type": "Feature", "geometry": {"type":"Point","coordinates":[110.8199923,-7.5587409]}, "properties": {"osm_id": 10961477100, "osm_type": "nodes", "military": null, "government": "administrative", "landuse": null, "building": null, "name": "Kantor Kelurahan Punggawan", "office": "government", "amenity": null}},{"type": "Feature", "geometry": {"type":"Point","coordinates":[110.8161,-7.56]}, "properties": {"osm_id": 10961475370, "osm_type": "nodes", "military": null, "government": "administrative", "landuse": null, "building": null, "name": "Kantor Kelurahan Mangkubumen", "office": "government", "amenity": null}},{"type": "Feature", "geometry": {"type":"Point","coordinates":[110.8194,-7.562]}, "properties": {"osm_id": 10961474566, "osm_type": "nodes", "military": null, "government": "administrative", "landuse": null, "building": null, "name": "Kantor Kelurahan Ketelan", "office": "government", "amenity": null}},{"type": "Feature", "geometry": {"type":"Point","coordinates":[110.8104,-7.5777]}, "properties": {"osm_id": 10961479099, "osm_type": "nodes", "military": null, "government": "administrative", "landuse": null, "building": null, "name": "Kantor Kelurahan Tipes", "office": "government", "amenity": null}},{"type": "Feature", "geometry": {"type":"Point","coordinates":[110.8418081,-7.5434211]}, "properties": {"osm_id": 10961472835, "osm_type": "nodes", "military": null, "government": "administrative", "landuse": null, "building": null, "name": "Kantor Kelurahan Mojosongo", "office": "government", "amenity": null}},{"type": "Feature", "geometry": {"type":"Point","coordinates":[110.8111665,-7.5732085]}, "properties": {"osm_id": 10961476944, "osm_type": "nodes", "military": null, "government": "administrative", "landuse": null, "building": null, "name": "Kantor Kelurahan Panularan", "office": "government", "amenity": null}},{"type": "Feature", "geometry": {"type":"Point","coordinates":[110.8079,-7.5675]}, "properties": {"osm_id": 10961473741, "osm_type": "nodes", "military": null, "government": "administrative", "landuse": null, "building": null, "name": "Kantor Kelurahan Penumping", "office": "government", "amenity": null}},{"type": "Feature", "geometry": {"type":"Point","coordinates":[110.8202,-7.5723]}, "properties": {"osm_id": 10961478429, "osm_type": "nodes", "military": null, "government": "administrative", "landuse": null, "building": null, "name": "Kantor Kelurahan Kemlayan", "office": "government", "amenity": null}},{"type": "Feature", "geometry": {"type":"Point","coordinates":[110.8147,-7.5701]}, "properties": {"osm_id": 10961479478, "osm_type": "nodes", "military": null, "government": "administrative", "landuse": null, "building": null, "name": "Kantor Kelurahan Sriwedari", "office": "government", "amenity": null}},{"type": "Feature", "geometry": {"type":"Point","coordinates":[110.8169357,-7.5841486]}, "properties": {"osm_id": 3967278557, "osm_type": "nodes", "military": null, "government": "administrative", "landuse": null, "building": null, "name": "kantor Kelurahan Serengan", "office": "government", "amenity": null}},{"type": "Feature", "geometry": {"type":"Point","coordinates":[110.8303805,-7.5477331]}, "properties": {"osm_id": 9783253690, "osm_type": "nodes", "military": null, "government": null, "landuse": null, "building": null, "name": null, "office": null, "amenity": "post_office"}},{"type": "Feature", "geometry": {"type":"Point","coordinates":[110.8089445,-7.5711619]}, "properties": {"osm_id": 10105429010, "osm_type": "nodes", "military": null, "government": null, "landuse": null, "building": null, "name": "Kecamatan Laweyan", "office": "government", "amenity": null}},{"type": "Feature", "geometry": {"type":"Point","coordinates":[110.8207,-7.5672]}, "properties": {"osm_id": 10961477902, "osm_type": "nodes", "military": null, "government": "administrative", "landuse": null, "building": null, "name": "Kantor Kelurahan Timuran", "office": "government", "amenity": null}},{"type": "Feature", "geometry": {"type":"Point","coordinates":[110.8262,-7.5694]}, "properties": {"osm_id": 10961471352, "osm_type": "nodes", "military": null, "government": "administrative", "landuse": null, "building": null, "name": "Kantor Kelurahan Kampung Baru", "office": "government", "amenity": null}},{"type": "Feature", "geometry": {"type":"Point","coordinates":[110.8189,-7.5743]}, "properties": {"osm_id": 10961475895, "osm_type": "nodes", "military": null, "government": "administrative", "landuse": null, "building": null, "name": "Kantor Kelurahan Jayengan", "office": "government", "amenity": null}},{"type": "Feature", "geometry": {"type":"Point","coordinates":[110.817529,-7.551603]}, "properties": {"osm_id": 4052305100, "osm_type": "nodes", "military": null, "government": null, "landuse": null, "building": null, "name": "PDAM", "office": "government", "amenity": null}},{"type": "Feature", "geometry": {"type":"Point","coordinates":[110.8148,-7.5533]}, "properties": {"osm_id": 10961476431, "osm_type": "nodes", "military": null, "government": "administrative", "landuse": null, "building": null, "name": "Kantor Kelurahan Gilingan", "office": "government", "amenity": null}},{"type": "Feature", "geometry": {"type":"Point","coordinates":[110.8031873,-7.5482411]}, "properties": {"osm_id": 10961473226, "osm_type": "nodes", "military": null, "government": "administrative", "landuse": null, "building": null, "name": "Kantor Kelurahan Sumber", "office": "government", "amenity": null}},{"type": "Feature", "geometry": {"type":"Point","coordinates":[110.8423751,-7.5551694]}, "properties": {"osm_id": 9837684467, "osm_type": "nodes", "military": null, "government": null, "landuse": null, "building": null, "name": "BBRSBD Prof Dr Soeharso", "office": "government", "amenity": null}},{"type": "Feature", "geometry": {"type":"Polygon","coordinates":[[[110.8309069,-7.5716522],[110.8309655,-7.5716674],[110.8309911,-7.5715706],[110.8309325,-7.5715554],[110.8309069,-7.5716522]]]}, "properties": {"osm_id": 1070824548, "osm_type": "ways_poly", "military": "bunker", "government": null, "landuse": null, "building": "bunker", "name": null, "office": null, "amenity": null}},{"type": "Feature", "geometry": {"type":"Polygon","coordinates":[[[110.8309707,-7.5716838],[110.8309918,-7.5716899],[110.8309756,-7.5717586],[110.8310282,-7.5717714],[110.8310458,-7.5717024],[110.8310733,-7.5717097],[110.8310561,-7.5717797],[110.8311018,-7.5717914],[110.8311182,-7.5717204],[110.8311458,-7.5717276],[110.8311304,-7.5717943],[110.8311791,-7.5718047],[110.8311926,-7.5717391],[110.8312215,-7.5717466],[110.8312095,-7.5718111],[110.8312561,-7.5718198],[110.831269,-7.5717565],[110.831299,-7.5717627],[110.8312854,-7.5718304],[110.8313348,-7.5718376],[110.8313476,-7.5717727],[110.8313756,-7.5717786],[110.8313608,-7.5718506],[110.8314124,-7.5718575],[110.8314249,-7.5717897],[110.8314489,-7.5717933],[110.8314368,-7.5718632],[110.8314816,-7.5718705],[110.8314946,-7.5718002],[110.8315246,-7.5718052],[110.8315113,-7.5718767],[110.8315583,-7.5718844],[110.8315696,-7.5718163],[110.8316014,-7.5718211],[110.8315896,-7.5718934],[110.8316328,-7.5719008],[110.8316677,-7.5717159],[110.8316199,-7.5717074],[110.8316053,-7.5717963],[110.8314991,-7.5717767],[110.8315137,-7.5716881],[110.8314667,-7.571681],[110.8314532,-7.5717709],[110.8314294,-7.571767],[110.8314463,-7.5716733],[110.8313941,-7.5716654],[110.8313802,-7.5717549],[110.8313527,-7.5717492],[110.8313711,-7.5716566],[110.8313216,-7.5716483],[110.8313042,-7.5717369],[110.8312746,-7.5717311],[110.8312945,-7.571645],[110.8312454,-7.5716351],[110.8312283,-7.5717215],[110.8311981,-7.571715],[110.831217,-7.5716296],[110.8311701,-7.5716201],[110.8311529,-7.5717013],[110.8311237,-7.5716936],[110.8311521,-7.571575],[110.8311099,-7.5715646],[110.8310804,-7.5716822],[110.8310526,-7.5716732],[110.8310823,-7.5715537],[110.8310297,-7.5715409],[110.831,-7.5716637],[110.8309771,-7.5716585],[110.8309707,-7.5716838]]]}, "properties": {"osm_id": 1070824549, "osm_type": "ways_poly", "military": "bunker", "government": null, "landuse": null, "building": "bunker", "name": null, "office": null, "amenity": null}},{"type": "Feature", "geometry": {"type":"Polygon","coordinates":[[[110.8309628,-7.5722321],[110.831015,-7.5722449],[110.8310383,-7.5721516],[110.8309862,-7.5721389],[110.8309628,-7.5722321]]]}, "properties": {"osm_id": 1070824553, "osm_type": "ways_poly", "military": "bunker", "government": null, "landuse": null, "building": "bunker", "name": null, "office": null, "amenity": null}},{"type": "Feature", "geometry": {"type":"Polygon","coordinates":[[[110.8311388,-7.5722095],[110.831164,-7.5722161],[110.8311786,-7.5721611],[110.8311533,-7.5721546],[110.8311388,-7.5722095]]]}, "properties": {"osm_id": 1070824557, "osm_type": "ways_poly", "military": "bunker", "government": null, "landuse": null, "building": "bunker", "name": null, "office": null, "amenity": null}},{"type": "Feature", "geometry": {"type":"Polygon","coordinates":[[[110.7953861,-7.563374],[110.7954224,-7.5633875],[110.7958611,-7.5635506],[110.7959056,-7.5634332],[110.7955837,-7.5633136],[110.7956425,-7.5631581],[110.7958973,-7.5632528],[110.7959463,-7.5631233],[110.7955473,-7.562975],[110.7955415,-7.5629903],[110.7955326,-7.5629869],[110.7953861,-7.563374]]]}, "properties": {"osm_id": 580025918, "osm_type": "ways_poly", "military": null, "government": null, "landuse": null, "building": "yes", "name": "Kantor Pelayanan Pajak Pratama Surakarta", "office": "government", "amenity": null}},{"type": "Feature", "geometry": {"type":"Polygon","coordinates":[[[110.831297,-7.57225],[110.8313223,-7.5722566],[110.8313368,-7.5722017],[110.8313116,-7.5721951],[110.831297,-7.57225]]]}, "properties": {"osm_id": 1070824558, "osm_type": "ways_poly", "military": "bunker", "government": null, "landuse": null, "building": "bunker", "name": null, "office": null, "amenity": null}},{"type": "Feature", "geometry": {"type":"Polygon","coordinates":[[[110.8123273,-7.5803225],[110.8125155,-7.5804021],[110.8126013,-7.5802027],[110.8124131,-7.5801231],[110.8123273,-7.5803225]]]}, "properties": {"osm_id": 580021053, "osm_type": "ways_poly", "military": null, "government": null, "landuse": null, "building": "yes", "name": "Kantor Pelayanan Pajak Madya Surakarta Tipes", "office": "government", "amenity": null}},{"type": "Feature", "geometry": {"type":"Polygon","coordinates":[[[110.829252,-7.5775467],[110.8294317,-7.577576],[110.8294561,-7.5774289],[110.8292764,-7.5773997],[110.829252,-7.5775467]]]}, "properties": {"osm_id": 580026327, "osm_type": "ways_poly", "military": "office", "government": null, "landuse": null, "building": "yes", "name": "Pusdiktop TNI AD Baluwarti Surakarta", "office": null, "amenity": "school"}},{"type": "Feature", "geometry": {"type":"Polygon","coordinates":[[[110.8151158,-7.5808379],[110.8152101,-7.5808435],[110.8152181,-7.5807105],[110.8151239,-7.5807049],[110.8151158,-7.5808379]]]}, "properties": {"osm_id": 534584372, "osm_type": "ways_poly", "military": null, "government": "administrative", "landuse": null, "building": "yes", "name": "Kantor Kecamatan Serengan", "office": "government", "amenity": null}},{"type": "Feature", "geometry": {"type":"Polygon","coordinates":[[[110.8115576,-7.5793406],[110.8116764,-7.5793736],[110.8117108,-7.5792518],[110.811592,-7.5792188],[110.8115576,-7.5793406]]]}, "properties": {"osm_id": 580021042, "osm_type": "ways_poly", "military": null, "government": null, "landuse": null, "building": "yes", "name": "Kantor Pos Tipes", "office": null, "amenity": "post_office"}},{"type": "Feature", "geometry": {"type":"Polygon","coordinates":[[[110.8311079,-7.5722022],[110.8311332,-7.5722087],[110.8311477,-7.5721538],[110.8311225,-7.5721473],[110.8311079,-7.5722022]]]}, "properties": {"osm_id": 1070824555, "osm_type": "ways_poly", "military": "bunker", "government": null, "landuse": null, "building": "bunker", "name": null, "office": null, "amenity": null}},{"type": "Feature", "geometry": {"type":"Polygon","coordinates":[[[110.831171,-7.5722181],[110.8311962,-7.5722247],[110.8312108,-7.5721698],[110.8311855,-7.5721632],[110.831171,-7.5722181]]]}, "properties": {"osm_id": 1070824556, "osm_type": "ways_poly", "military": "bunker", "government": null, "landuse": null, "building": "bunker", "name": null, "office": null, "amenity": null}},{"type": "Feature", "geometry": {"type":"Polygon","coordinates":[[[110.8312649,-7.5722414],[110.8312901,-7.572248],[110.8313046,-7.572193],[110.8312794,-7.5721865],[110.8312649,-7.5722414]]]}, "properties": {"osm_id": 1070824559, "osm_type": "ways_poly", "military": "bunker", "government": null, "landuse": null, "building": "bunker", "name": null, "office": null, "amenity": null}},{"type": "Feature", "geometry": {"type":"Polygon","coordinates":[[[110.8313272,-7.572258],[110.8313525,-7.5722646],[110.831367,-7.5722097],[110.8313418,-7.5722031],[110.8313272,-7.572258]]]}, "properties": {"osm_id": 1070824562, "osm_type": "ways_poly", "military": "bunker", "government": null, "landuse": null, "building": "bunker", "name": null, "office": null, "amenity": null}},{"type": "Feature", "geometry": {"type":"Polygon","coordinates":[[[110.8308743,-7.5722108],[110.8309265,-7.5722236],[110.8309498,-7.5721304],[110.8308976,-7.5721176],[110.8308743,-7.5722108]]]}, "properties": {"osm_id": 1070824552, "osm_type": "ways_poly", "military": "bunker", "government": null, "landuse": null, "building": "bunker", "name": null, "office": null, "amenity": null}},{"type": "Feature", "geometry": {"type":"Polygon","coordinates":[[[110.8310758,-7.5721935],[110.831101,-7.5722001],[110.8311156,-7.5721452],[110.8310903,-7.5721386],[110.8310758,-7.5721935]]]}, "properties": {"osm_id": 1070824554, "osm_type": "ways_poly", "military": "bunker", "government": null, "landuse": null, "building": "bunker", "name": null, "office": null, "amenity": null}},{"type": "Feature", "geometry": {"type":"Polygon","coordinates":[[[110.831234,-7.5722341],[110.8312593,-7.5722407],[110.8312738,-7.5721857],[110.8312486,-7.5721792],[110.831234,-7.5722341]]]}, "properties": {"osm_id": 1070824560, "osm_type": "ways_poly", "military": "bunker", "government": null, "landuse": null, "building": "bunker", "name": null, "office": null, "amenity": null}},{"type": "Feature", "geometry": {"type":"Polygon","coordinates":[[[110.829865,-7.5720657],[110.8298883,-7.5720717],[110.8299246,-7.5720809],[110.829923,-7.5720872],[110.8299144,-7.5721203],[110.8301582,-7.5721821],[110.8301619,-7.5721677],[110.8301854,-7.5721737],[110.8301962,-7.5721318],[110.8302096,-7.5721352],[110.8302251,-7.5720752],[110.8302136,-7.5720723],[110.8302274,-7.5720189],[110.8299936,-7.5719596],[110.8299611,-7.5719513],[110.8299533,-7.5719816],[110.829918,-7.5719727],[110.8298908,-7.5719658],[110.829865,-7.5720657]]]}, "properties": {"osm_id": 329893488, "osm_type": "ways_poly", "military": null, "government": "public_service", "landuse": null, "building": "yes", "name": "Mal Pelayanan Publik (MPP) DPMPTSP Kota Surakarta", "office": "government", "amenity": null}},{"type": "Feature", "geometry": {"type":"Polygon","coordinates":[[[110.8312018,-7.5722254],[110.8312271,-7.572232],[110.8312416,-7.5721771],[110.8312164,-7.5721705],[110.8312018,-7.5722254]]]}, "properties": {"osm_id": 1070824561, "osm_type": "ways_poly", "military": "bunker", "government": null, "landuse": null, "building": "bunker", "name": null, "office": null, "amenity": null}},{"type": "Feature", "geometry": {"type":"Polygon","coordinates":[[[110.8288149,-7.5694886],[110.8291166,-7.5695541],[110.8291413,-7.5694427],[110.8292175,-7.5694592],[110.8291928,-7.569571],[110.8295309,-7.5696444],[110.8295507,-7.5695548],[110.8296116,-7.569568],[110.8296453,-7.5694156],[110.829585,-7.5694025],[110.8296053,-7.5693108],[110.8292726,-7.5692386],[110.8292496,-7.5693427],[110.8291562,-7.5693224],[110.8291894,-7.5691724],[110.8288987,-7.5691093],[110.8288149,-7.5694886]]]}, "properties": {"osm_id": 325413027, "osm_type": "ways_poly", "military": null, "government": null, "landuse": null, "building": "yes", "name": "Pendhapi Balaikota Surakarta", "office": null, "amenity": "townhall"}},{"type": "Feature", "geometry": {"type":"Polygon","coordinates":[[[110.8290192,-7.5713247],[110.8294027,-7.5714293],[110.8294732,-7.5711754],[110.8296592,-7.5712261],[110.8297263,-7.570984],[110.8291569,-7.5708287],[110.8290192,-7.5713247]]]}, "properties": {"osm_id": 325413020, "osm_type": "ways_poly", "military": null, "government": null, "landuse": null, "building": "yes", "name": "Kantor Pos Besar Solo", "office": null, "amenity": "post_office"}},{"type": "Feature", "geometry": {"type":"Polygon","coordinates":[[[110.8362932,-7.5770765],[110.8363284,-7.577088],[110.8363208,-7.5771109],[110.8363753,-7.5771287],[110.836383,-7.5771056],[110.8364119,-7.5771151],[110.836442,-7.5770248],[110.8363235,-7.5769859],[110.8362932,-7.5770765]]]}, "properties": {"osm_id": 579966912, "osm_type": "ways_poly", "military": null, "government": "administrative", "landuse": null, "building": "yes", "name": "Kantor Kelurahan Kedung Lumbu", "office": "government", "amenity": null}},{"type": "Feature", "geometry": {"type":"Polygon","coordinates":[[[110.8411746,-7.5763499],[110.8412195,-7.5763551],[110.8412216,-7.576323],[110.8411777,-7.5763168],[110.8411746,-7.5763499]]]}, "properties": {"osm_id": 456707766, "osm_type": "ways_poly", "military": null, "government": null, "landuse": null, "building": "yes", "name": null, "office": "government", "amenity": null}},{"type": "Feature", "geometry": {"type":"Polygon","coordinates":[[[110.8101842,-7.566393],[110.8102486,-7.5664063],[110.810283,-7.5662424],[110.8102186,-7.5662291],[110.8101842,-7.566393]]]}, "properties": {"osm_id": 636432653, "osm_type": "ways_poly", "military": null, "government": "tax", "landuse": null, "building": "yes", "name": "Kantor OJK Sriwedari", "office": "government", "amenity": null}},{"type": "Feature", "geometry": {"type":"Polygon","coordinates":[[[110.8550392,-7.5550378],[110.8551086,-7.5551375],[110.8551423,-7.5551144],[110.8551744,-7.5551605],[110.8552481,-7.5551101],[110.8552163,-7.5550644],[110.8552388,-7.555049],[110.855169,-7.5549489],[110.8550392,-7.5550378]]]}, "properties": {"osm_id": 1092873137, "osm_type": "ways_poly", "military": null, "government": null, "landuse": null, "building": "yes", "name": "Kantor Kecamatan Jebres", "office": null, "amenity": "townhall"}},{"type": "Feature", "geometry": {"type":"Polygon","coordinates":[[[110.8241577,-7.5676478],[110.8249774,-7.5678262],[110.8250129,-7.56767],[110.8251699,-7.5677188],[110.825286,-7.5672668],[110.8243055,-7.5670033],[110.8241577,-7.5676478]]]}, "properties": {"osm_id": 1506577958, "osm_type": "ways_poly", "military": null, "government": null, "landuse": "military", "building": null, "name": null, "office": null, "amenity": null}},{"type": "Feature", "geometry": {"type":"Polygon","coordinates":[[[110.8213768,-7.5395096],[110.8213796,-7.5396337],[110.8213841,-7.5397388],[110.8213922,-7.5398239],[110.821453,-7.5398832],[110.8215255,-7.539934],[110.8216469,-7.5399494],[110.8217458,-7.5399383],[110.8217777,-7.5398819],[110.8217708,-7.5397231],[110.8217788,-7.5395447],[110.8217709,-7.5394397],[110.8217624,-7.5393274],[110.8216917,-7.5393322],[110.821623,-7.5393334],[110.8215242,-7.5393674],[110.8214376,-7.5394249],[110.8213768,-7.5395096]]]}, "properties": {"osm_id": 458238944, "osm_type": "ways_poly", "military": null, "government": null, "landuse": "military", "building": null, "name": null, "office": null, "amenity": null}},{"type": "Feature", "geometry": {"type":"Polygon","coordinates":[[[110.8014268,-7.5519326],[110.8015325,-7.5519796],[110.8015473,-7.5519471],[110.8016239,-7.5518108],[110.8015676,-7.5517797],[110.8015059,-7.5518895],[110.8014563,-7.5518674],[110.8014268,-7.5519326]]]}, "properties": {"osm_id": 580024274, "osm_type": "ways_poly", "military": null, "government": null, "landuse": null, "building": "yes", "name": "BPOM Kota Surakarta", "office": "government", "amenity": null}},{"type": "Feature", "geometry": {"type":"Polygon","coordinates":[[[110.7830043,-7.5493521],[110.7831288,-7.5493985],[110.7832137,-7.5491743],[110.7833042,-7.5492056],[110.7832722,-7.5492962],[110.7833972,-7.5493396],[110.7834274,-7.549254],[110.7835244,-7.5492875],[110.7834328,-7.5495362],[110.7835338,-7.5495727],[110.7836739,-7.5491924],[110.7836757,-7.549193],[110.783717,-7.5490752],[110.7836161,-7.5490387],[110.7836156,-7.5490403],[110.7835151,-7.5490056],[110.7835461,-7.5489181],[110.7834211,-7.5488747],[110.7833901,-7.5489625],[110.7831794,-7.5488899],[110.7830043,-7.5493521]]]}, "properties": {"osm_id": 535628039, "osm_type": "ways_poly", "military": null, "government": null, "landuse": null, "building": null, "name": "PDAM Surakarta", "office": "government", "amenity": null}},{"type": "Feature", "geometry": {"type":"Polygon","coordinates":[[[110.8147276,-7.5535378],[110.8148337,-7.5535503],[110.8148428,-7.5534743],[110.8147912,-7.5534682],[110.8148044,-7.5533586],[110.8147499,-7.5533522],[110.8147276,-7.5535378]]]}, "properties": {"osm_id": 401048694, "osm_type": "ways_poly", "military": null, "government": null, "landuse": null, "building": "yes", "name": "Kantor Kelurahan Gilingan", "office": "government", "amenity": null}},{"type": "Feature", "geometry": {"type":"Polygon","coordinates":[[[110.8265697,-7.5624285],[110.8266502,-7.5624471],[110.8266811,-7.5623156],[110.8266006,-7.562297],[110.8265697,-7.5624285]]]}, "properties": {"osm_id": 579877102, "osm_type": "ways_poly", "military": null, "government": null, "landuse": null, "building": "yes", "name": "Kantor Kelurahan Stabelan", "office": "government", "amenity": null}},{"type": "Feature", "geometry": {"type":"Polygon","coordinates":[[[110.8536038,-7.5720776],[110.85361,-7.5721993],[110.8536664,-7.57219],[110.8536547,-7.5720762],[110.8536038,-7.5720776]]]}, "properties": {"osm_id": 540585819, "osm_type": "ways_poly", "military": null, "government": null, "landuse": null, "building": "yes", "name": "rumah dinas", "office": "government", "amenity": null}},{"type": "Feature", "geometry": {"type":"Polygon","coordinates":[[[110.8093477,-7.5579174],[110.8095704,-7.5581886],[110.8097215,-7.5580667],[110.8094988,-7.5577955],[110.8093477,-7.5579174]]]}, "properties": {"osm_id": 580006809, "osm_type": "ways_poly", "military": null, "government": "tax", "landuse": null, "building": "yes", "name": "Direktorat Jenderal Pajak Jawa Tengah II", "office": "government", "amenity": null}},{"type": "Feature", "geometry": {"type":"Polygon","coordinates":[[[110.7890403,-7.5589002],[110.7894095,-7.5590201],[110.789435,-7.558943],[110.7893082,-7.5589018],[110.7893309,-7.5588311],[110.7892174,-7.5587952],[110.7891949,-7.558865],[110.7890658,-7.5588231],[110.7890403,-7.5589002]]]}, "properties": {"osm_id": 536614440, "osm_type": "ways_poly", "military": "office", "government": null, "landuse": null, "building": "yes", "name": "Korem Militer 074 Warastratama", "office": null, "amenity": null}},{"type": "Feature", "geometry": {"type":"Polygon","coordinates":[[[110.7868525,-7.5604049],[110.7873139,-7.5606016],[110.7875177,-7.5600539],[110.7870939,-7.5598731],[110.7868525,-7.5604049]]]}, "properties": {"osm_id": 225531774, "osm_type": "ways_poly", "military": null, "government": null, "landuse": null, "building": "yes", "name": "KPPN Surakarta", "office": "government", "amenity": null}},{"type": "Feature", "geometry": {"type":"Polygon","coordinates":[[[110.7830506,-7.5479843],[110.7831297,-7.5480109],[110.783166,-7.5479099],[110.7830872,-7.5478833],[110.7830506,-7.5479843]]]}, "properties": {"osm_id": 450339843, "osm_type": "ways_poly", "military": null, "government": "ministry", "landuse": null, "building": null, "name": "Kementrian Pertahanan 'Pusat Rehabilitasi Perwakilan - Purna Yudha'", "office": "government", "amenity": null}},{"type": "Feature", "geometry": {"type":"Polygon","coordinates":[[[110.7828891,-7.5480887],[110.7831787,-7.5481791],[110.7832109,-7.5480661],[110.7829293,-7.5479757],[110.7828891,-7.5480887]]]}, "properties": {"osm_id": 450339842, "osm_type": "ways_poly", "military": null, "government": "ministry", "landuse": null, "building": null, "name": "Kementrian Pertahanan 'Pusat Rehabilitasi Perwakilan - Purna Yudha'", "office": "government", "amenity": null}},{"type": "Feature", "geometry": {"type":"Polygon","coordinates":[[[110.7833329,-7.5479092],[110.7834831,-7.5479571],[110.7833919,-7.5482522],[110.7834872,-7.5482801],[110.783459,-7.5483612],[110.7835515,-7.5483852],[110.7835931,-7.5482403],[110.7837903,-7.5482894],[110.7838224,-7.5481738],[110.7837098,-7.5481472],[110.7837634,-7.5479544],[110.7835649,-7.5478999],[110.7835489,-7.5479398],[110.7834697,-7.5479145],[110.7835006,-7.5478268],[110.7833758,-7.5477869],[110.7833329,-7.5479092]]]}, "properties": {"osm_id": 450339841, "osm_type": "ways_poly", "military": null, "government": "ministry", "landuse": null, "building": null, "name": "Kementrian Pertahanan 'Pusat Rehabilitasi Perwakilan - Purna Yudha'", "office": "government", "amenity": null}},{"type": "Feature", "geometry": {"type":"Polygon","coordinates":[[[110.7814027,-7.5484546],[110.7815788,-7.5485217],[110.7816458,-7.5483489],[110.7815909,-7.548328],[110.7816119,-7.5482738],[110.7815338,-7.548244],[110.7815127,-7.5482982],[110.7814698,-7.5482818],[110.7814027,-7.5484546]]]}, "properties": {"osm_id": 535628204, "osm_type": "ways_poly", "military": null, "government": null, "landuse": null, "building": "yes", "name": "Kantor Inspektorat Surakarta", "office": "government", "amenity": null}},{"type": "Feature", "geometry": {"type":"Polygon","coordinates":[[[110.7830805,-7.547852],[110.7832428,-7.5479132],[110.783291,-7.5477855],[110.7832609,-7.5477756],[110.783232,-7.5478467],[110.7832025,-7.547836],[110.783228,-7.5477669],[110.7831274,-7.5477317],[110.7830805,-7.547852]]]}, "properties": {"osm_id": 450339844, "osm_type": "ways_poly", "military": null, "government": "ministry", "landuse": null, "building": null, "name": "Kementrian Pertahanan 'Pusat Rehabilitasi Perwakilan - Purna Yudha'", "office": "government", "amenity": null}},{"type": "Feature", "geometry": {"type":"Polygon","coordinates":[[[110.7824333,-7.5492247],[110.782759,-7.5493568],[110.7828484,-7.5491401],[110.7827704,-7.5491085],[110.7827942,-7.5490448],[110.7826057,-7.5489758],[110.7825844,-7.549033],[110.7825227,-7.549008],[110.7824333,-7.5492247]]]}, "properties": {"osm_id": 535628170, "osm_type": "ways_poly", "military": null, "government": null, "landuse": null, "building": "yes", "name": "Kantor DPRD Surakarta", "office": "government", "amenity": null}},{"type": "Feature", "geometry": {"type":"Polygon","coordinates":[[[110.8217624,-7.5393274],[110.8217709,-7.5394397],[110.8217788,-7.5395447],[110.8217708,-7.5397231],[110.8226307,-7.5397437],[110.8227469,-7.5365655],[110.8218912,-7.5365436],[110.8217624,-7.5393274]]]}, "properties": {"osm_id": 458238943, "osm_type": "ways_poly", "military": null, "government": null, "landuse": "military", "building": null, "name": null, "office": null, "amenity": null}}]}